{"type":"FeatureCollection","features":[{"type":"Feature","id":"south-korea","properties":{"id":"south-korea","source":"geoBoundaries gbOpen KOR ADM1 @9469f09, dissolved"},"geometry":{"type":"MultiPolygon","coordinates":[[[[124.6136,37.9451],[124.6441,37.9245],[124.6849,37.92],[124.7053,37.9327],[124.6999,37.9365],[124.6882,37.9382],[124.6784,37.942],[124.678,37.9525],[124.6833,37.9545],[124.7088,37.9563],[124.7282,37.947],[124.742,37.955],[124.7437,37.9697],[124.7327,37.9805],[124.7049,37.9887],[124.6494,37.9733],[124.624,37.9805],[124.6136,37.9451]]],[[[124.6735,37.817],[124.6815,37.8088],[124.6847,37.8039],[124.6846,37.8026],[124.6846,37.8],[124.6873,37.8008],[124.6924,37.805],[124.699,37.8069],[124.7068,37.8063],[124.7142,37.8096],[124.7183,37.8182],[124.7214,37.8284],[124.7258,37.8374],[124.7245,37.8437],[124.7165,37.8469],[124.7092,37.8476],[124.7041,37.8444],[124.6934,37.8355],[124.6765,37.8249],[124.6735,37.817]]],[[[125.0897,34.0795],[125.0921,34.0718],[125.1033,34.0661],[125.1228,34.0512],[125.1277,34.0486],[125.1299,34.0476],[125.1343,34.0469],[125.1374,34.0513],[125.1364,34.0593],[125.1221,34.0838],[125.1133,34.0928],[125.1022,34.0959],[125.0946,34.0901],[125.0897,34.0795]]],[[[125.3923,34.6463],[125.3988,34.632],[125.4085,34.6286],[125.4126,34.6323],[125.4177,34.6381],[125.4243,34.6472],[125.4274,34.6542],[125.4432,34.6694],[125.4458,34.6751],[125.4505,34.6797],[125.4592,34.6868],[125.4573,34.6909],[125.4458,34.6885],[125.4373,34.6883],[125.4339,34.6955],[125.4295,34.6984],[125.4212,34.6971],[125.4129,34.692],[125.4056,34.6826],[125.3989,34.6718],[125.3934,34.6597],[125.3923,34.6463]]],[[[125.6792,37.6697],[125.6846,37.6573],[125.6878,37.6518],[125.6936,37.654],[125.7031,37.6614],[125.7062,37.6723],[125.6992,37.6781],[125.6882,37.6793],[125.6804,37.6783],[125.6792,37.6697]]],[[[125.8909,34.7498],[125.8926,34.7366],[125.8978,34.726],[125.9064,34.7193],[125.9181,34.7182],[125.93,34.7226],[125.9387,34.7314],[125.9441,34.7432],[125.9461,34.7567],[125.9517,34.7593],[125.9642,34.7571],[125.9779,34.7571],[125.9865,34.7665],[125.9915,34.7641],[126.0029,34.7615],[126.0076,34.7597],[126.0072,34.781],[126.0044,34.7872],[126.0007,34.7901],[125.9959,34.7908],[125.9893,34.79],[125.9566,34.7797],[125.9386,34.7765],[125.9251,34.7808],[125.9129,34.7769],[125.9019,34.7711],[125.8939,34.7623],[125.8909,34.7498]]],[[[125.916,34.6876],[125.9251,34.671],[125.9295,34.6723],[125.9452,34.6668],[125.9596,34.6598],[125.9597,34.6567],[125.97,34.6559],[125.9769,34.6564],[125.9839,34.6606],[125.999,34.6774],[126.0032,34.6848],[126.0054,34.6926],[126.0041,34.7003],[126.001,34.7044],[125.989,34.7133],[125.9805,34.7262],[125.9767,34.7283],[125.9706,34.7257],[125.9524,34.7051],[125.9229,34.6954],[125.916,34.6876]]],[[[125.9865,34.8627],[125.9988,34.8629],[126.0314,34.869],[126.0399,34.8664],[126.0464,34.8618],[126.0547,34.8592],[126.0691,34.8627],[126.0807,34.871],[126.0884,34.883],[126.0915,34.8969],[126.0891,34.9113],[126.0812,34.9226],[126.0701,34.9289],[126.0603,34.9269],[126.056,34.9136],[126.0523,34.9075],[126.044,34.9074],[126.0344,34.9096],[126.028,34.9099],[126.0143,34.8996],[125.9963,34.876],[125.9865,34.869],[125.9865,34.8627]]],[[[126.0166,34.6061],[126.0205,34.5714],[126.0286,34.5659],[126.0381,34.5695],[126.0486,34.5701],[126.0576,34.5726],[126.0604,34.5843],[126.052,34.5983],[126.0414,34.6112],[126.0286,34.6342],[126.0202,34.6254],[126.0166,34.6061]]],[[[126.021,34.3011],[126.0217,34.2956],[126.0287,34.2873],[126.0493,34.2802],[126.0557,34.281],[126.0574,34.286],[126.0608,34.2861],[126.065,34.2807],[126.0693,34.279],[126.075,34.2829],[126.0846,34.2839],[126.0894,34.2896],[126.0877,34.2968],[126.0887,34.3079],[126.082,34.3107],[126.0676,34.3089],[126.0332,34.3149],[126.0257,34.3108],[126.0252,34.3059],[126.021,34.3011]]],[[[126.0313,34.5564],[126.0535,34.5523],[126.0545,34.5489],[126.0485,34.5452],[126.0435,34.541],[126.0374,34.5407],[126.0316,34.539],[126.0352,34.5339],[126.0467,34.5312],[126.0576,34.5325],[126.0773,34.5422],[126.0857,34.5487],[126.0938,34.5537],[126.0994,34.5587],[126.1003,34.5683],[126.1034,34.5794],[126.1043,34.5898],[126.1024,34.5949],[126.1001,34.5967],[126.0994,34.6055],[126.0871,34.6112],[126.0798,34.6174],[126.0676,34.6255],[126.0601,34.6208],[126.0664,34.604],[126.0764,34.5908],[126.0813,34.5808],[126.0763,34.571],[126.065,34.5638],[126.0505,34.5634],[126.0366,34.5617],[126.0313,34.5564]]],[[[126.056,35.0613],[126.0604,35.0607],[126.063,35.059],[126.0654,35.0568],[126.0691,35.0546],[126.0786,35.0559],[126.1052,35.05],[126.1106,35.0512],[126.1143,35.0593],[126.1228,35.0698],[126.134,35.0788],[126.1448,35.0825],[126.1314,35.1002],[126.127,35.1105],[126.1278,35.1206],[126.1348,35.129],[126.1652,35.1435],[126.1499,35.1469],[126.1294,35.1429],[126.1113,35.1333],[126.1038,35.1197],[126.0989,35.1133],[126.0879,35.1089],[126.076,35.1056],[126.0691,35.1024],[126.0638,35.0931],[126.056,35.0613]]],[[[126.0641,34.8426],[126.0711,34.8322],[126.0794,34.8227],[126.0944,34.8087],[126.094,34.8047],[126.0962,34.7988],[126.1052,34.7982],[126.1159,34.8031],[126.1192,34.8126],[126.1189,34.8238],[126.1252,34.8297],[126.135,34.8293],[126.1421,34.8329],[126.1445,34.8424],[126.1397,34.8579],[126.1531,34.865],[126.152,34.8712],[126.1472,34.8769],[126.1423,34.8791],[126.1359,34.8786],[126.1228,34.8788],[126.1133,34.8712],[126.1152,34.8594],[126.1126,34.8534],[126.1033,34.8532],[126.0938,34.8576],[126.0818,34.8566],[126.0671,34.8505],[126.0641,34.8426]]],[[[126.0696,34.7697],[126.0737,34.7614],[126.0934,34.7443],[126.1025,34.7305],[126.1043,34.722],[126.1113,34.7177],[126.1188,34.7182],[126.1223,34.7196],[126.1277,34.7236],[126.1384,34.7235],[126.1477,34.7123],[126.1594,34.7028],[126.1721,34.7038],[126.1779,34.7134],[126.1775,34.7241],[126.1741,34.7328],[126.1731,34.7394],[126.1738,34.7445],[126.1703,34.7499],[126.1636,34.755],[126.1538,34.7569],[126.1419,34.7576],[126.1331,34.7612],[126.1272,34.7665],[126.1178,34.77],[126.1052,34.7716],[126.0946,34.7707],[126.0872,34.7675],[126.0793,34.7676],[126.0696,34.7697]]],[[[126.0886,37.226],[126.0928,37.2248],[126.0999,37.228],[126.1025,37.2287],[126.1052,37.2236],[126.1117,37.2145],[126.1216,37.2109],[126.1333,37.2123],[126.1423,37.2154],[126.155,37.2257],[126.1592,37.2319],[126.1516,37.2386],[126.127,37.2489],[126.1198,37.2536],[126.1128,37.2631],[126.1047,37.2675],[126.0974,37.2594],[126.0918,37.2459],[126.0887,37.2296],[126.0886,37.226]]],[[[126.0925,34.7876],[126.1048,34.7816],[126.1216,34.7765],[126.1346,34.7673],[126.1463,34.7619],[126.1582,34.7645],[126.1642,34.7698],[126.1621,34.7833],[126.1655,34.7897],[126.1687,34.7923],[126.1663,34.7965],[126.159,34.8046],[126.1494,34.8081],[126.1419,34.803],[126.1273,34.7978],[126.1024,34.7944],[126.0925,34.7876]]],[[[126.1033,34.4028],[126.1243,34.3823],[126.1243,34.4035],[126.1531,34.3885],[126.1585,34.3823],[126.1556,34.3772],[126.1482,34.3711],[126.1426,34.3638],[126.1448,34.355],[126.1564,34.3526],[126.1985,34.3555],[126.21,34.3588],[126.3052,34.4017],[126.3093,34.4177],[126.3093,34.424],[126.3171,34.4199],[126.3342,34.4066],[126.3359,34.4035],[126.3459,34.409],[126.3539,34.4196],[126.3735,34.4544],[126.3789,34.4693],[126.3816,34.4847],[126.3801,34.4984],[126.3504,34.5382],[126.3495,34.5468],[126.3268,34.5351],[126.3223,34.5338],[126.3156,34.5383],[126.3108,34.5452],[126.3079,34.5515],[126.3054,34.5543],[126.2948,34.5589],[126.2804,34.5683],[126.2639,34.5758],[126.2477,34.5748],[126.2411,34.5665],[126.2668,34.5498],[126.2744,34.5373],[126.2683,34.522],[126.2542,34.5143],[126.2383,34.5157],[126.2266,34.5276],[126.2238,34.5134],[126.2166,34.509],[126.207,34.5076],[126.1963,34.5028],[126.187,34.4942],[126.1812,34.4865],[126.1721,34.4649],[126.1442,34.4632],[126.1157,34.4362],[126.1033,34.4028]]],[[[126.1278,35.0482],[126.1321,35.0471],[126.1366,35.0478],[126.1394,35.0465],[126.1322,35.0419],[126.1336,35.0397],[126.1385,35.0399],[126.1423,35.0383],[126.1438,35.0339],[126.1486,35.0335],[126.154,35.0357],[126.1581,35.0334],[126.167,35.0253],[126.1724,35.0236],[126.1774,35.0259],[126.1817,35.0291],[126.1819,35.0389],[126.1809,35.044],[126.1784,35.0485],[126.1742,35.0532],[126.1653,35.0552],[126.1525,35.0544],[126.1438,35.0577],[126.1374,35.0569],[126.1296,35.0527],[126.1278,35.0482]]],[[[126.1282,36.7613],[126.1301,36.737],[126.1289,36.7119],[126.1328,36.7038],[126.1445,36.7124],[126.1502,36.7239],[126.1531,36.7488],[126.1582,36.7608],[126.1712,36.7523],[126.1873,36.7485],[126.2026,36.7424],[126.2134,36.7267],[126.2136,36.7116],[126.2031,36.7059],[126.1619,36.7062],[126.157,36.7021],[126.1585,36.6929],[126.1627,36.6835],[126.1656,36.6789],[126.1777,36.6732],[126.188,36.6738],[126.1983,36.6771],[126.2097,36.6789],[126.2293,36.6847],[126.2557,36.7116],[126.2742,36.7199],[126.2817,36.6926],[126.273,36.6732],[126.3023,36.6344],[126.2886,36.61],[126.292,36.6042],[126.2943,36.5975],[126.2954,36.59],[126.2953,36.5827],[126.304,36.5931],[126.3148,36.6016],[126.3277,36.6076],[126.343,36.61],[126.3262,36.6284],[126.3247,36.6366],[126.3357,36.6441],[126.3291,36.6606],[126.3109,36.684],[126.3015,36.6994],[126.3243,36.6997],[126.3316,36.7114],[126.334,36.7274],[126.343,36.7404],[126.3591,36.7427],[126.3699,36.7323],[126.3664,36.707],[126.3779,36.7026],[126.372,36.6831],[126.3671,36.6291],[126.3864,36.6189],[126.4057,36.6182],[126.4242,36.6066],[126.4333,36.6157],[126.4439,36.6381],[126.4395,36.6643],[126.4469,36.6838],[126.4456,36.7007],[126.4386,36.7094],[126.438,36.7165],[126.4412,36.7235],[126.457,36.729],[126.4712,36.7414],[126.4796,36.7471],[126.4827,36.7383],[126.4873,36.7322],[126.5007,36.7199],[126.4773,36.7169],[126.4697,36.7046],[126.4745,36.6879],[126.4985,36.6843],[126.508,36.6704],[126.494,36.6613],[126.4838,36.6496],[126.4999,36.6368],[126.5117,36.6348],[126.5199,36.6262],[126.5139,36.6154],[126.5123,36.6032],[126.4915,36.6038],[126.4715,36.5963],[126.4577,36.5956],[126.4581,36.5914],[126.4642,36.5841],[126.4692,36.5669],[126.4701,36.5578],[126.4657,36.5494],[126.4703,36.5402],[126.4751,36.5394],[126.4829,36.5352],[126.4916,36.5287],[126.5108,36.5342],[126.5139,36.5288],[126.5042,36.5167],[126.4834,36.497],[126.4828,36.4858],[126.4885,36.4669],[126.4977,36.4484],[126.5076,36.4387],[126.5234,36.4411],[126.545,36.467],[126.5591,36.4735],[126.6174,36.4735],[126.598,36.4651],[126.5568,36.4558],[126.5375,36.4332],[126.5169,36.4282],[126.4988,36.4201],[126.5138,36.3977],[126.5007,36.3977],[126.5007,36.3909],[126.5088,36.3852],[126.5206,36.3736],[126.5274,36.3698],[126.5604,36.3696],[126.5762,36.3663],[126.5826,36.353],[126.5733,36.3426],[126.5288,36.3339],[126.5138,36.3227],[126.5291,36.3161],[126.5715,36.3056],[126.5826,36.2947],[126.568,36.2868],[126.5559,36.2663],[126.5349,36.2196],[126.5411,36.2126],[126.5486,36.206],[126.5543,36.2034],[126.5623,36.2072],[126.5689,36.206],[126.5801,36.1994],[126.5885,36.1916],[126.6033,36.1718],[126.5613,36.1816],[126.5314,36.1739],[126.4974,36.16],[126.4934,36.1308],[126.5003,36.1257],[126.5036,36.1322],[126.5096,36.151],[126.5292,36.1535],[126.5518,36.1418],[126.5523,36.1308],[126.5586,36.1308],[126.5719,36.137],[126.5894,36.1308],[126.6123,36.099],[126.6248,36.0956],[126.6385,36.091],[126.645,36.0847],[126.6311,36.0756],[126.6401,36.0634],[126.657,36.0455],[126.6653,36.0346],[126.6705,36.022],[126.6721,36.0129],[126.6773,36.0059],[126.6925,35.9999],[126.7134,36.0074],[126.7357,36.0104],[126.7544,36.0177],[126.7713,36.0309],[126.7915,36.0422],[126.8121,36.0473],[126.8707,36.062],[126.8689,36.0475],[126.8491,36.036],[126.8023,36.0209],[126.7655,35.9983],[126.7445,35.9896],[126.7273,35.9936],[126.7112,35.9858],[126.6613,35.9834],[126.612,35.9784],[126.5214,35.9705],[126.5257,35.9404],[126.5697,35.946],[126.5996,35.9377],[126.6088,35.9311],[126.6118,35.9074],[126.6123,35.8902],[126.6601,35.8872],[126.7085,35.8846],[126.7332,35.8856],[126.8067,35.9097],[126.8098,35.9117],[126.8216,35.9081],[126.8323,35.9006],[126.8375,35.8933],[126.8331,35.89],[126.8193,35.8881],[126.8145,35.883],[126.8123,35.8757],[126.8062,35.8667],[126.7971,35.8629],[126.7849,35.862],[126.7291,35.865],[126.72,35.8633],[126.7117,35.8577],[126.7034,35.8485],[126.7007,35.8398],[126.71,35.836],[126.7276,35.8253],[126.7493,35.8133],[126.7685,35.8056],[126.7777,35.8001],[126.791,35.7914],[126.7896,35.7797],[126.7861,35.7684],[126.782,35.7602],[126.7713,35.7752],[126.7554,35.7785],[126.7331,35.7924],[126.698,35.7959],[126.6622,35.793],[126.6561,35.7887],[126.6448,35.7829],[126.6294,35.7755],[126.6251,35.7456],[126.5972,35.7139],[126.5603,35.6974],[126.5303,35.6832],[126.5114,35.6655],[126.491,35.6491],[126.4676,35.6396],[126.4667,35.6289],[126.4637,35.602],[126.5132,35.5769],[126.655,35.5958],[126.6702,35.5887],[126.6795,35.5717],[126.6925,35.5344],[126.679,35.538],[126.6607,35.5565],[126.6429,35.5728],[126.623,35.5686],[126.6089,35.5521],[126.5942,35.5425],[126.5624,35.5411],[126.5253,35.5349],[126.4927,35.5253],[126.4698,35.4985],[126.4427,35.4469],[126.4255,35.4177],[126.4182,35.394],[126.4231,35.3834],[126.4369,35.3706],[126.4561,35.3528],[126.4585,35.3454],[126.4496,35.345],[126.4319,35.3494],[126.4172,35.3649],[126.4114,35.3699],[126.3894,35.3425],[126.3807,35.3271],[126.3773,35.3115],[126.379,35.3046],[126.3822,35.2983],[126.3838,35.2917],[126.3804,35.2842],[126.3739,35.2784],[126.3674,35.2743],[126.3616,35.269],[126.3567,35.26],[126.3645,35.2587],[126.3682,35.2567],[126.3713,35.2545],[126.3773,35.2526],[126.3591,35.249],[126.3384,35.248],[126.3201,35.2446],[126.3089,35.2333],[126.3374,35.2336],[126.3507,35.2353],[126.3635,35.2395],[126.3616,35.2257],[126.3667,35.2177],[126.3773,35.2116],[126.3751,35.2024],[126.3704,35.197],[126.3657,35.1929],[126.3635,35.188],[126.3711,35.1735],[126.4039,35.1422],[126.4142,35.1197],[126.4207,35.1142],[126.4287,35.1105],[126.4475,35.1067],[126.4524,35.1003],[126.4529,35.0825],[126.4503,35.0666],[126.4251,35.0198],[126.4144,35.0288],[126.4072,35.039],[126.4056,35.05],[126.4114,35.0613],[126.4038,35.0649],[126.387,35.0654],[126.3773,35.0682],[126.3653,35.074],[126.3617,35.0773],[126.3607,35.083],[126.3567,35.0961],[126.3536,35.0978],[126.349,35.0964],[126.345,35.0964],[126.343,35.1024],[126.3442,35.1081],[126.3487,35.1175],[126.3514,35.136],[126.3501,35.1456],[126.343,35.157],[126.335,35.1341],[126.3279,35.1226],[126.3152,35.116],[126.3072,35.1318],[126.2891,35.1394],[126.2686,35.1372],[126.2542,35.1234],[126.2578,35.1068],[126.2835,35.0788],[126.2742,35.0682],[126.2883,35.053],[126.3025,35.0534],[126.3094,35.0662],[126.3015,35.0887],[126.3206,35.0833],[126.3382,35.0701],[126.3667,35.0378],[126.3741,35.0168],[126.3462,34.9941],[126.3492,34.9726],[126.3242,34.977],[126.313,34.9774],[126.3015,34.9726],[126.3064,34.9636],[126.3126,34.9561],[126.3201,34.9499],[126.3289,34.9447],[126.3247,34.9433],[126.3152,34.9379],[126.3277,34.9311],[126.3452,34.9264],[126.3633,34.9274],[126.3773,34.9379],[126.377,34.9473],[126.3721,34.9587],[126.3706,34.9685],[126.3804,34.9726],[126.388,34.9748],[126.3933,34.9798],[126.4,34.9846],[126.4114,34.9863],[126.4364,34.9814],[126.4305,34.9726],[126.4116,34.962],[126.3977,34.9515],[126.3958,34.935],[126.4017,34.9155],[126.4126,34.8987],[126.4251,34.8907],[126.4121,34.8813],[126.4087,34.874],[126.4114,34.859],[126.411,34.8513],[126.4093,34.8445],[126.4051,34.8372],[126.3977,34.828],[126.3773,34.8113],[126.3701,34.8013],[126.3735,34.7907],[126.384,34.7863],[126.4056,34.7922],[126.4193,34.792],[126.421,34.8023],[126.4295,34.8056],[126.4561,34.8007],[126.4692,34.8041],[126.478,34.8105],[126.4872,34.8138],[126.5007,34.8081],[126.4966,34.8028],[126.4912,34.7924],[126.4872,34.7871],[126.4934,34.7831],[126.4934,34.7808],[126.5133,34.7823],[126.5237,34.7939],[126.5349,34.828],[126.5469,34.8477],[126.5486,34.8491],[126.5471,34.8581],[126.5405,34.8749],[126.5418,34.8832],[126.5527,34.8957],[126.5676,34.9014],[126.5814,34.898],[126.5894,34.8832],[126.5891,34.8729],[126.5847,34.8668],[126.5794,34.8619],[126.5758,34.8553],[126.5758,34.8449],[126.5784,34.838],[126.5797,34.8314],[126.5758,34.8218],[126.6277,34.8256],[126.6504,34.8222],[126.6653,34.8081],[126.6549,34.8085],[126.6466,34.8071],[126.6311,34.8007],[126.6382,34.788],[126.6148,34.7895],[126.5689,34.8007],[126.5444,34.7957],[126.5325,34.7829],[126.5305,34.7653],[126.5349,34.746],[126.5303,34.7475],[126.5276,34.7493],[126.5252,34.7513],[126.5213,34.7535],[126.5059,34.751],[126.4601,34.7788],[126.4221,34.7648],[126.3923,34.7686],[126.3783,34.7639],[126.364,34.7492],[126.3671,34.7397],[126.3902,34.7334],[126.4154,34.739],[126.4358,34.7281],[126.4653,34.7297],[126.4902,34.7256],[126.5084,34.7185],[126.5411,34.684],[126.5628,34.671],[126.5554,34.6635],[126.5855,34.6418],[126.6025,34.6329],[126.6236,34.63],[126.6027,34.6255],[126.5739,34.6331],[126.55,34.6438],[126.5316,34.6526],[126.5191,34.6504],[126.54,34.6276],[126.5357,34.6232],[126.5251,34.6289],[126.5112,34.6372],[126.5003,34.6458],[126.4824,34.6517],[126.4694,34.6587],[126.4633,34.6654],[126.4529,34.671],[126.4505,34.677],[126.4509,34.6809],[126.4507,34.6849],[126.4533,34.6979],[126.4479,34.7059],[126.406,34.7134],[126.3786,34.7112],[126.3844,34.6937],[126.3768,34.6795],[126.3799,34.6545],[126.3861,34.6358],[126.3965,34.6366],[126.4029,34.6507],[126.4161,34.6527],[126.4126,34.6298],[126.4253,34.6193],[126.435,34.6068],[126.4556,34.6031],[126.4615,34.6007],[126.4727,34.602],[126.4646,34.5847],[126.4531,34.5838],[126.4319,34.5959],[126.3823,34.6027],[126.3699,34.6089],[126.3492,34.6567],[126.346,34.6677],[126.3442,34.6779],[126.3472,34.6879],[126.3567,34.6982],[126.3262,34.7358],[126.3196,34.7477],[126.3137,34.751],[126.3059,34.7529],[126.2984,34.7535],[126.2903,34.7502],[126.2888,34.7424],[126.2896,34.7331],[126.2886,34.7256],[126.2781,34.7033],[126.2694,34.6713],[126.2711,34.6425],[126.2918,34.63],[126.3186,34.6191],[126.3228,34.6089],[126.3155,34.6041],[126.3055,34.6042],[126.3015,34.6089],[126.2976,34.6033],[126.2935,34.602],[126.2918,34.5991],[126.2953,34.5891],[126.2979,34.588],[126.3186,34.5717],[126.325,34.5696],[126.333,34.571],[126.3401,34.5744],[126.343,34.5782],[126.346,34.5846],[126.3521,34.5798],[126.357,34.5717],[126.3567,34.5685],[126.3805,34.5589],[126.389,34.5497],[126.3909,34.5338],[126.4056,34.5386],[126.4173,34.5404],[126.4387,34.5407],[126.4485,34.5393],[126.457,34.539],[126.4659,34.5407],[126.4693,34.5497],[126.4735,34.5565],[126.4796,34.5611],[126.4863,34.5609],[126.4993,34.5543],[126.5076,34.5543],[126.5139,34.5578],[126.523,34.5671],[126.5274,34.5685],[126.5396,34.563],[126.5393,34.5536],[126.5296,34.543],[126.5138,34.5338],[126.5232,34.5312],[126.531,34.527],[126.5372,34.5211],[126.5418,34.5133],[126.5169,34.5128],[126.4902,34.5086],[126.4703,34.4965],[126.4659,34.4724],[126.4819,34.4768],[126.4837,34.4702],[126.48,34.4578],[126.4796,34.445],[126.4773,34.4436],[126.4744,34.4387],[126.4758,34.4333],[126.4866,34.4308],[126.5015,34.4293],[126.5088,34.4272],[126.5138,34.424],[126.5176,34.4138],[126.5149,34.4036],[126.5007,34.3823],[126.4964,34.3799],[126.492,34.3811],[126.4885,34.3806],[126.4866,34.3648],[126.4849,34.3608],[126.4796,34.355],[126.4796,34.3488],[126.5057,34.3499],[126.5183,34.3478],[126.5274,34.3414],[126.5293,34.33],[126.5199,34.306],[126.5213,34.2942],[126.5328,34.2922],[126.5789,34.3048],[126.6033,34.3004],[126.6033,34.312],[126.6053,34.3217],[126.6296,34.3892],[126.6336,34.3957],[126.6448,34.4035],[126.6744,34.4097],[126.6822,34.414],[126.6873,34.4239],[126.6875,34.4313],[126.6902,34.4359],[126.7034,34.4376],[126.7083,34.4365],[126.7175,34.4318],[126.7236,34.4308],[126.7269,34.433],[126.728,34.4379],[126.7271,34.4428],[126.7236,34.445],[126.7088,34.4499],[126.7232,34.4608],[126.7615,34.4792],[126.7391,34.5027],[126.7351,34.5149],[126.766,34.5234],[126.7656,34.5318],[126.7593,34.5439],[126.7552,34.5577],[126.7586,34.5672],[126.7669,34.578],[126.7778,34.5865],[126.7887,34.5891],[126.8001,34.582],[126.8067,34.5685],[126.8079,34.5532],[126.8023,34.5407],[126.8062,34.5211],[126.802,34.4704],[126.8098,34.4512],[126.8186,34.4468],[126.857,34.4376],[126.885,34.4211],[126.898,34.4177],[126.8923,34.4294],[126.8919,34.4401],[126.896,34.4499],[126.9048,34.4587],[126.9314,34.4477],[126.9408,34.4546],[126.939,34.4959],[126.9942,34.5407],[126.9867,34.5537],[126.9913,34.5644],[127.0006,34.5733],[127.0072,34.5815],[127.009,34.5932],[127.0086,34.6042],[127.0103,34.6125],[127.0178,34.6157],[127.03,34.6184],[127.0427,34.6245],[127.0625,34.6369],[127.0991,34.6545],[127.1072,34.6601],[127.1253,34.6798],[127.1362,34.6881],[127.148,34.6915],[127.1731,34.6872],[127.1853,34.6867],[127.1997,34.6915],[127.2137,34.7056],[127.2339,34.7482],[127.2481,34.7665],[127.2727,34.7338],[127.2908,34.7214],[127.3126,34.729],[127.3316,34.7412],[127.3386,34.7331],[127.344,34.7153],[127.3579,34.6982],[127.3501,34.6878],[127.3364,34.6636],[127.3299,34.6567],[127.3145,34.6519],[127.303,34.655],[127.2944,34.6641],[127.2884,34.6772],[127.2937,34.6867],[127.292,34.6945],[127.2852,34.7006],[127.2748,34.7051],[127.2459,34.6789],[127.2406,34.671],[127.2415,34.6558],[127.2474,34.6481],[127.2551,34.6415],[127.261,34.63],[127.2613,34.6004],[127.2467,34.5837],[127.2222,34.5764],[127.1929,34.5748],[127.2075,34.604],[127.2124,34.6202],[127.2134,34.6369],[127.1988,34.631],[127.1917,34.6236],[127.1792,34.602],[127.159,34.58],[127.1519,34.5748],[127.1296,34.5639],[127.1233,34.5554],[127.1245,34.5407],[127.1338,34.5263],[127.1472,34.5205],[127.1629,34.518],[127.1792,34.5133],[127.1764,34.5173],[127.1724,34.5276],[127.212,34.5447],[127.2235,34.5468],[127.261,34.5133],[127.2751,34.4895],[127.3159,34.4449],[127.3436,34.445],[127.3308,34.4565],[127.3278,34.4739],[127.3566,34.492],[127.3749,34.485],[127.3918,34.5048],[127.4392,34.5407],[127.4184,34.5553],[127.3804,34.5471],[127.3719,34.5517],[127.3579,34.5543],[127.346,34.575],[127.3436,34.5782],[127.3494,34.5858],[127.363,34.5939],[127.3792,34.6],[127.3921,34.602],[127.4067,34.5981],[127.4522,34.5748],[127.4646,34.5773],[127.4841,34.5766],[127.4944,34.5838],[127.5036,34.5913],[127.5008,34.6122],[127.4952,34.6232],[127.4522,34.6369],[127.4597,34.6383],[127.4773,34.6382],[127.4876,34.6369],[127.4662,34.6622],[127.4349,34.6787],[127.406,34.7],[127.3921,34.7398],[127.3949,34.7425],[127.4002,34.7436],[127.4024,34.7471],[127.3953,34.7567],[127.3853,34.7602],[127.3665,34.754],[127.3579,34.7597],[127.3616,34.7733],[127.3831,34.7833],[127.4255,34.7944],[127.4255,34.8007],[127.4043,34.8059],[127.3785,34.8151],[127.3653,34.824],[127.3816,34.828],[127.4248,34.8271],[127.4447,34.8292],[127.4788,34.8391],[127.4839,34.8395],[127.4873,34.8415],[127.4939,34.8491],[127.511,34.8847],[127.5144,34.8869],[127.5166,34.8911],[127.5213,34.8898],[127.5259,34.8854],[127.5281,34.8798],[127.5271,34.8747],[127.5227,34.8649],[127.5218,34.859],[127.5244,34.8493],[127.5396,34.8231],[127.5366,34.8192],[127.5349,34.8132],[127.5354,34.8081],[127.5403,34.8038],[127.5462,34.803],[127.5518,34.8029],[127.5559,34.8007],[127.5718,34.7725],[127.5798,34.7631],[127.5845,34.7462],[127.575,34.7265],[127.562,34.7057],[127.5559,34.6846],[127.5608,34.6622],[127.5723,34.6474],[127.5901,34.6393],[127.614,34.6369],[127.6304,34.6227],[127.6407,34.618],[127.6453,34.6263],[127.638,34.671],[127.6321,34.685],[127.6243,34.6982],[127.6292,34.6993],[127.6306,34.7011],[127.6321,34.7014],[127.638,34.6982],[127.6563,34.7313],[127.6786,34.7274],[127.7064,34.7159],[127.7415,34.7256],[127.7498,34.7371],[127.7613,34.7871],[127.7713,34.8153],[127.7745,34.8293],[127.7756,34.8491],[127.7568,34.8408],[127.7398,34.8417],[127.7214,34.8446],[127.7,34.8423],[127.669,34.8183],[127.6565,34.8119],[127.646,34.8161],[127.6348,34.828],[127.6189,34.8364],[127.6012,34.8564],[127.5857,34.8792],[127.5764,34.8969],[127.5753,34.9136],[127.5807,34.9337],[127.5916,34.9464],[127.6072,34.9413],[127.6261,34.9097],[127.6411,34.8991],[127.6621,34.9068],[127.7,34.9316],[127.7092,34.9404],[127.7132,34.9467],[127.7205,34.9652],[127.7183,34.9704],[127.7166,34.9824],[127.7192,34.9901],[127.7307,34.9826],[127.7366,34.9729],[127.739,34.9653],[127.7444,34.9602],[127.7579,34.9583],[127.7984,34.9586],[127.805,34.9571],[127.8154,34.9548],[127.8303,34.9447],[127.8364,34.9494],[127.8443,34.9502],[127.8539,34.9482],[127.8645,34.9447],[127.8912,34.9467],[127.9121,34.9621],[127.9229,34.9875],[127.9258,35.0198],[127.937,35.0126],[127.9434,35.0028],[127.9539,34.9788],[127.9797,34.9923],[128.0068,34.9918],[128.0193,34.9987],[128.001,35.0341],[128.025,35.0358],[128.0409,35.0492],[128.0537,35.0671],[128.0693,35.0825],[128.0681,35.0702],[128.0637,35.0606],[128.0586,35.0533],[128.0557,35.0478],[128.054,35.0358],[128.0557,34.9617],[128.054,34.955],[128.0515,34.9475],[128.051,34.9396],[128.0557,34.9316],[128.064,34.9279],[128.0875,34.9263],[128.1019,34.9235],[128.113,34.9252],[128.1177,34.9242],[128.1187,34.9204],[128.119,34.9057],[128.1211,34.9003],[128.1394,34.8919],[128.1859,34.8936],[128.207,34.8907],[128.2066,34.9055],[128.2086,34.9208],[128.2141,34.9329],[128.2241,34.9379],[128.2468,34.936],[128.2579,34.9302],[128.2791,34.9068],[128.3023,34.908],[128.3187,34.9341],[128.3351,34.9473],[128.3578,34.9099],[128.3347,34.9026],[128.3245,34.8973],[128.3265,34.8891],[128.3408,34.8727],[128.3538,34.8685],[128.4159,34.8627],[128.4109,34.856],[128.4027,34.8548],[128.3834,34.8546],[128.3829,34.8393],[128.4129,34.8376],[128.4353,34.8432],[128.4605,34.8702],[128.4745,34.8907],[128.4609,34.9037],[128.4579,34.8939],[128.4509,34.8859],[128.4421,34.8835],[128.433,34.8907],[128.4404,34.9316],[128.4417,34.9525],[128.4414,34.9599],[128.4404,34.9652],[128.4337,34.9737],[128.4247,34.978],[128.42,34.9827],[128.4268,34.9925],[128.4397,34.9881],[128.4592,34.9874],[128.4788,34.9901],[128.4915,34.9959],[128.4996,35.0092],[128.4976,35.0207],[128.4915,35.0336],[128.4881,35.0512],[128.4712,35.0502],[128.3714,35.0068],[128.3714,35.0136],[128.3821,35.0226],[128.384,35.0364],[128.3892,35.049],[128.4285,35.0578],[128.4627,35.072],[128.4813,35.075],[128.4697,35.0884],[128.4691,35.0954],[128.4781,35.0991],[128.5112,35.1042],[128.5264,35.1035],[128.5803,35.0879],[128.5872,35.0833],[128.5968,35.075],[128.6001,35.0686],[128.6006,35.0619],[128.6036,35.0566],[128.6143,35.0546],[128.6345,35.0546],[128.6433,35.0565],[128.6521,35.0613],[128.645,35.0629],[128.6327,35.0673],[128.6248,35.0682],[128.6295,35.0815],[128.627,35.0908],[128.6104,35.1092],[128.6018,35.1212],[128.5977,35.1305],[128.5906,35.157],[128.5779,35.1787],[128.5781,35.1894],[128.5906,35.2054],[128.6021,35.2139],[128.6079,35.2112],[128.6179,35.1849],[128.614,35.1774],[128.6223,35.1574],[128.6179,35.1433],[128.638,35.1498],[128.6517,35.1408],[128.6641,35.1261],[128.6799,35.116],[128.6805,35.1314],[128.6878,35.1406],[128.6963,35.1435],[128.7005,35.1399],[128.7005,35.0961],[128.7158,35.1059],[128.7278,35.1047],[128.7387,35.088],[128.762,35.0794],[128.772,35.0833],[128.7811,35.1111],[128.7878,35.1013],[128.7916,35.083],[128.8574,35.0838],[128.8822,35.0815],[128.8893,35.1055],[128.8979,35.1213],[128.9046,35.1205],[128.9036,35.1014],[128.9046,35.0811],[128.9184,35.0819],[128.9489,35.126],[128.958,35.1369],[128.9628,35.1334],[128.9613,35.119],[128.9537,35.0932],[128.9504,35.0729],[128.9584,35.0504],[128.9651,35.0436],[128.9749,35.0487],[128.9851,35.0543],[128.9894,35.0527],[128.9928,35.046],[129.0004,35.046],[128.998,35.0663],[128.997,35.0757],[129.009,35.0651],[129.0138,35.0553],[129.0219,35.06],[129.0257,35.0795],[129.0376,35.0978],[129.0638,35.1208],[129.072,35.1126],[129.083,35.1052],[129.1011,35.0923],[129.1235,35.1008],[129.1286,35.1141],[129.1273,35.1258],[129.1193,35.1356],[129.1203,35.1496],[129.1322,35.1508],[129.1431,35.1548],[129.1534,35.1543],[129.1675,35.1562],[129.1789,35.1558],[129.1943,35.1555],[129.1993,35.1636],[129.2011,35.1666],[129.2107,35.183],[129.2285,35.2005],[129.2444,35.2282],[129.2557,35.247],[129.2554,35.2526],[129.2497,35.2662],[129.2565,35.2744],[129.2624,35.284],[129.2641,35.3024],[129.2688,35.3157],[129.2692,35.3168],[129.2927,35.316],[129.3205,35.3385],[129.3399,35.3481],[129.3604,35.3536],[129.3618,35.3672],[129.3551,35.3727],[129.3468,35.3823],[129.3553,35.3946],[129.3646,35.4069],[129.3605,35.4261],[129.3592,35.4446],[129.3578,35.4518],[129.3657,35.4583],[129.3772,35.4592],[129.3875,35.4623],[129.3919,35.4757],[129.391,35.4899],[129.3871,35.5023],[129.3789,35.5107],[129.3652,35.5133],[129.3735,35.5328],[129.3875,35.5299],[129.4004,35.5126],[129.4063,35.4897],[129.4129,35.4721],[129.428,35.4787],[129.4444,35.4968],[129.4546,35.5133],[129.4614,35.5521],[129.4635,35.5779],[129.4673,35.5997],[129.4606,35.6093],[129.4591,35.6108],[129.4514,35.6182],[129.4431,35.6361],[129.4516,35.6518],[129.4711,35.6832],[129.4977,35.7479],[129.4962,35.7851],[129.5221,35.8446],[129.5328,35.913],[129.5356,35.939],[129.5716,35.9971],[129.5873,36.0169],[129.582,36.0368],[129.575,36.0547],[129.5713,36.0718],[129.5548,36.0825],[129.5426,36.0659],[129.479,36.0096],[129.4533,35.9933],[129.4331,35.9961],[129.4171,36.0119],[129.4019,36.0257],[129.3809,36.0415],[129.3818,36.0552],[129.3984,36.0663],[129.4083,36.0689],[129.4187,36.073],[129.4268,36.0818],[129.4305,36.0974],[129.4251,36.103],[129.4171,36.1076],[129.4097,36.1336],[129.4039,36.1676],[129.3985,36.1727],[129.3919,36.1763],[129.3858,36.1855],[129.3823,36.2018],[129.3866,36.3227],[129.3919,36.3425],[129.4039,36.3594],[129.4348,36.3896],[129.4409,36.4079],[129.4471,36.4933],[129.4417,36.5347],[129.428,36.5757],[129.4229,36.615],[129.4226,36.6166],[129.4409,36.6578],[129.4635,36.6925],[129.4739,36.7306],[129.4712,36.7719],[129.438,36.8561],[129.4287,36.8974],[129.4199,36.9868],[129.4127,37.0181],[129.4131,37.0277],[129.419,37.0385],[129.4282,37.0495],[129.4341,37.0611],[129.4302,37.0731],[129.3789,37.1301],[129.3601,37.1718],[129.3464,37.2475],[129.3311,37.2822],[129.2828,37.3244],[129.2759,37.3399],[129.2722,37.3559],[129.2628,37.3709],[129.2354,37.3983],[129.19,37.4694],[129.1768,37.4802],[129.1612,37.4876],[129.1482,37.5051],[129.119,37.5806],[129.1087,37.5974],[129.0733,37.613],[129.0671,37.6339],[129.0669,37.6584],[129.0642,37.6789],[129.0123,37.7272],[129.0013,37.7344],[128.9238,37.8023],[128.8591,37.8768],[128.6925,38.0649],[128.6787,38.0943],[128.6428,38.1293],[128.6316,38.145],[128.5628,38.289],[128.4745,38.4261],[128.4507,38.4741],[128.4414,38.5058],[128.3948,38.5781],[128.3649,38.6243],[128.3084,38.6013],[128.2811,38.5844],[128.2748,38.5715],[128.277,38.5541],[128.2854,38.5198],[128.2811,38.4844],[128.2681,38.4535],[128.2487,38.4258],[128.2256,38.3998],[128.1724,38.356],[128.1085,38.3235],[128.0399,38.3043],[127.9718,38.3],[127.8669,38.3048],[127.8008,38.2939],[127.787,38.2967],[127.7747,38.3064],[127.7619,38.321],[127.7537,38.3254],[127.5608,38.3121],[127.5021,38.2981],[127.4719,38.2959],[127.3771,38.3185],[127.2538,38.31],[127.222,38.3127],[127.1575,38.3072],[127.0905,38.2859],[127.0267,38.2545],[126.9719,38.2189],[126.9661,38.213],[126.9537,38.2007],[126.9401,38.1742],[126.9198,38.1346],[126.9033,38.1196],[126.8648,38.096],[126.8473,38.082],[126.7619,37.979],[126.7221,37.9539],[126.6963,37.9462],[126.6778,37.9446],[126.6658,37.9376],[126.6605,37.9138],[126.6675,37.8278],[126.6826,37.836],[126.6925,37.8371],[126.7,37.8297],[126.6895,37.8137],[126.6849,37.7936],[126.686,37.7822],[126.6869,37.7736],[126.6963,37.758],[126.7005,37.743],[126.6956,37.7217],[126.6788,37.6863],[126.7364,37.6533],[126.7552,37.6379],[126.731,37.6391],[126.6921,37.652],[126.6615,37.6724],[126.6619,37.6959],[126.6673,37.7088],[126.6688,37.7277],[126.6668,37.7462],[126.6619,37.758],[126.6485,37.765],[126.6355,37.763],[126.6209,37.7576],[126.6033,37.7545],[126.5482,37.7702],[126.5349,37.7682],[126.531,37.7547],[126.5454,37.6725],[126.5562,37.641],[126.5603,37.6208],[126.5605,37.6074],[126.5719,37.5985],[126.5823,37.5845],[126.5911,37.5729],[126.5989,37.5581],[126.6038,37.5493],[126.5989,37.5251],[126.6011,37.5068],[126.6065,37.4968],[126.627,37.4986],[126.6307,37.5073],[126.6442,37.5044],[126.642,37.4961],[126.6334,37.4926],[126.6048,37.4857],[126.595,37.4723],[126.5983,37.4579],[126.596,37.4397],[126.6124,37.4327],[126.6303,37.425],[126.6386,37.4138],[126.6254,37.3979],[126.6151,37.3797],[126.6403,37.3644],[126.6648,37.3892],[126.7172,37.3838],[126.72,37.3771],[126.7069,37.3665],[126.6875,37.344],[126.6898,37.3325],[126.7333,37.3062],[126.7646,37.2983],[126.7836,37.2953],[126.7956,37.2947],[126.8076,37.2978],[126.8225,37.2956],[126.8289,37.288],[126.8428,37.2884],[126.8521,37.2862],[126.8599,37.2821],[126.866,37.2761],[126.8707,37.2679],[126.8486,37.2653],[126.833,37.2729],[126.8192,37.2744],[126.8023,37.2543],[126.7974,37.2329],[126.7925,37.2235],[126.782,37.2202],[126.7725,37.2239],[126.7676,37.2323],[126.7664,37.2432],[126.7676,37.2543],[126.7522,37.2483],[126.7391,37.2517],[126.7258,37.2582],[126.71,37.2617],[126.6905,37.2577],[126.6795,37.2572],[126.6721,37.2617],[126.6658,37.2569],[126.6629,37.2553],[126.6585,37.2543],[126.6665,37.2418],[126.6732,37.2284],[126.6802,37.2177],[126.6891,37.2133],[126.7158,37.2163],[126.719,37.2129],[126.7069,37.1997],[126.6968,37.1951],[126.6829,37.1914],[126.6707,37.1856],[126.6653,37.1755],[126.6685,37.1618],[126.6777,37.1595],[126.7069,37.1649],[126.6921,37.1483],[126.686,37.1393],[126.6856,37.1301],[126.6921,37.125],[126.7029,37.1247],[126.7144,37.128],[126.7236,37.1339],[126.7593,37.1647],[126.7786,37.1757],[126.8023,37.1854],[126.8023,37.1732],[126.8074,37.1653],[126.8169,37.1608],[126.8298,37.1587],[126.8506,37.173],[126.8645,37.1791],[126.8707,37.1755],[126.8692,37.157],[126.8635,37.1503],[126.8365,37.1444],[126.8112,37.1441],[126.7942,37.1389],[126.7783,37.1328],[126.7645,37.1177],[126.7529,37.1007],[126.7548,37.0836],[126.7512,37.0701],[126.7555,37.0601],[126.7552,37.0488],[126.8013,37.0377],[126.8206,37.0417],[126.8397,37.0449],[126.8491,37.0373],[126.8587,37.0413],[126.8633,37.0588],[126.8651,37.0749],[126.8705,37.0908],[126.8792,37.1],[126.8905,37.0959],[126.8831,37.0696],[126.8931,37.0501],[126.9067,37.0331],[126.911,37.0141],[126.9024,37.0195],[126.8926,37.0222],[126.8819,37.0227],[126.8707,37.0215],[126.8801,37.0157],[126.8843,37.0141],[126.8843,37.0079],[126.8244,37.0026],[126.8379,36.9759],[126.8734,36.948],[126.9127,36.9296],[126.9458,36.9259],[126.9691,36.932],[126.9763,36.939],[126.9732,36.97],[126.9822,36.9802],[127.042,36.9936],[127.0394,36.982],[127.0328,36.9785],[127.0239,36.9774],[127.01,36.9713],[127.0049,36.9714],[126.9995,36.9709],[126.9942,36.9669],[126.9959,36.9648],[127.0052,36.9569],[127.0072,36.9526],[127.0003,36.9284],[126.9895,36.9186],[126.9745,36.9129],[126.9617,36.9051],[126.9425,36.8934],[126.899,36.8793],[126.8806,36.8769],[126.8602,36.8696],[126.8705,36.8528],[126.9048,36.8223],[126.8836,36.8244],[126.8633,36.8291],[126.8716,36.804],[126.8665,36.7898],[126.8567,36.7764],[126.8508,36.754],[126.8425,36.757],[126.8368,36.7609],[126.8329,36.7667],[126.8298,36.7751],[126.8463,36.7791],[126.8491,36.788],[126.8407,36.8192],[126.8318,36.8311],[126.8298,36.8393],[126.8308,36.8472],[126.8355,36.8608],[126.8365,36.8669],[126.8343,36.8955],[126.8302,36.9102],[126.823,36.9184],[126.8128,36.9169],[126.794,36.8975],[126.782,36.8912],[126.7977,36.9344],[126.7962,36.9558],[126.7752,36.9731],[126.7578,36.9822],[126.7335,36.9874],[126.7143,36.993],[126.697,36.9948],[126.6815,36.9947],[126.665,36.9885],[126.6558,36.9746],[126.6494,36.9661],[126.6454,36.958],[126.6492,36.9334],[126.6465,36.9251],[126.6421,36.9177],[126.6311,36.9116],[126.6348,36.928],[126.6336,36.9374],[126.6236,36.9526],[126.6217,36.9598],[126.6314,36.9689],[126.6361,36.9825],[126.6261,36.9961],[126.6115,37.0026],[126.5963,37.0108],[126.5885,37.0172],[126.5693,37.0278],[126.5493,37.0392],[126.535,37.0493],[126.5191,37.0554],[126.5007,37.055],[126.5029,37.0395],[126.5123,37.0164],[126.533,37.0009],[126.552,36.9936],[126.5662,36.9908],[126.573,36.9844],[126.5721,36.9775],[126.5628,36.9731],[126.5503,36.9731],[126.54,36.9769],[126.5316,36.9829],[126.5156,36.9988],[126.5054,37.0066],[126.4968,37.0078],[126.4934,36.997],[126.4978,36.9942],[126.5591,36.9424],[126.5667,36.9322],[126.5755,36.9118],[126.5826,36.9042],[126.5826,36.898],[126.5684,36.8985],[126.5608,36.9051],[126.5557,36.9151],[126.5486,36.9259],[126.5313,36.9413],[126.5191,36.9479],[126.5138,36.9424],[126.5095,36.9189],[126.4912,36.8711],[126.4872,36.8462],[126.4839,36.8415],[126.4766,36.8449],[126.4692,36.854],[126.4659,36.8669],[126.4659,36.9116],[126.4688,36.9178],[126.4778,36.9264],[126.4796,36.929],[126.4785,36.9359],[126.4739,36.9422],[126.4727,36.9492],[126.4686,36.9576],[126.4588,36.9577],[126.4475,36.9528],[126.4387,36.9458],[126.4324,36.962],[126.4382,36.9733],[126.4478,36.982],[126.4529,36.9902],[126.4454,37.0034],[126.4277,37.0084],[126.3909,37.0079],[126.3909,37.0004],[126.3953,36.9929],[126.3914,36.9898],[126.3831,36.9912],[126.3735,36.997],[126.3638,37.0015],[126.353,37],[126.3431,36.9945],[126.3357,36.9868],[126.354,36.9879],[126.3694,36.9841],[126.3765,36.9749],[126.3699,36.9594],[126.3555,36.9678],[126.3507,36.9645],[126.3539,36.9552],[126.3635,36.9458],[126.3765,36.9416],[126.4027,36.9412],[126.4114,36.9389],[126.4192,36.9223],[126.4155,36.8998],[126.4014,36.8814],[126.3773,36.8769],[126.3773,36.8707],[126.3966,36.8642],[126.4046,36.8632],[126.4046,36.857],[126.3845,36.8529],[126.3741,36.8496],[126.3699,36.8462],[126.3653,36.8354],[126.3555,36.8405],[126.3394,36.857],[126.3287,36.847],[126.336,36.8247],[126.3567,36.7888],[126.3279,36.8046],[126.3153,36.8043],[126.2984,36.7919],[126.2913,36.7893],[126.286,36.7946],[126.2827,36.8037],[126.2817,36.8123],[126.2855,36.8149],[126.3035,36.8244],[126.3089,36.8291],[126.3081,36.8331],[126.3018,36.8478],[126.3015,36.857],[126.3076,36.8657],[126.3174,36.874],[126.3235,36.8832],[126.311,36.9096],[126.3067,36.9315],[126.3059,36.9531],[126.3089,36.9669],[126.2857,36.9611],[126.281,36.9365],[126.2835,36.9062],[126.2817,36.8837],[126.2752,36.8747],[126.2686,36.871],[126.2437,36.8707],[126.23,36.873],[126.2275,36.8798],[126.2339,36.9042],[126.2095,36.8972],[126.1922,36.8859],[126.1908,36.872],[126.2134,36.857],[126.1969,36.8357],[126.1987,36.8232],[126.2144,36.8175],[126.24,36.8161],[126.2324,36.8042],[126.2207,36.8017],[126.1922,36.8086],[126.2029,36.7932],[126.2134,36.7813],[126.2048,36.7828],[126.1973,36.7849],[126.1907,36.7853],[126.1854,36.7813],[126.1785,36.7895],[126.1731,36.7977],[126.1688,36.8064],[126.1656,36.8161],[126.1616,36.8033],[126.1566,36.7942],[126.131,36.7681],[126.1282,36.7613]]],[[[126.1587,35.0942],[126.1694,35.0737],[126.1748,35.0683],[126.1805,35.0659],[126.1848,35.0627],[126.1891,35.062],[126.1979,35.0613],[126.2036,35.0572],[126.2293,35.0537],[126.2361,35.0519],[126.2342,35.0471],[126.2341,35.0383],[126.238,35.0324],[126.2429,35.0273],[126.2546,35.0251],[126.2572,35.022],[126.2611,35.0246],[126.265,35.0342],[126.2632,35.0419],[126.2581,35.0475],[126.2551,35.0564],[126.2492,35.0633],[126.2388,35.0639],[126.2295,35.0673],[126.2185,35.0766],[126.2185,35.0819],[126.2224,35.0856],[126.2316,35.0861],[126.2385,35.0919],[126.236,35.0984],[126.2298,35.0969],[126.2249,35.0967],[126.2228,35.1011],[126.2166,35.1037],[126.207,35.0995],[126.1986,35.0971],[126.1892,35.1022],[126.1775,35.1058],[126.1648,35.1023],[126.1587,35.0942]]],[[[126.1611,33.3008],[126.1714,33.2694],[126.2008,33.2436],[126.2312,33.2349],[126.2539,33.204],[126.27,33.1976],[126.2861,33.2004],[126.3038,33.2266],[126.3334,33.2382],[126.4285,33.2393],[126.4706,33.2287],[126.5212,33.2366],[126.5655,33.2329],[126.6069,33.2406],[126.6407,33.2647],[126.7418,33.2802],[126.7801,33.3056],[126.8064,33.3036],[126.8159,33.3078],[126.8406,33.3102],[126.8472,33.3232],[126.848,33.3321],[126.863,33.3541],[126.8735,33.373],[126.9075,33.3957],[126.9255,33.4132],[126.9273,33.4161],[126.9358,33.4255],[126.9392,33.4309],[126.9392,33.4363],[126.9329,33.4455],[126.9324,33.4513],[126.9393,33.4582],[126.949,33.4606],[126.9536,33.465],[126.9461,33.478],[126.9434,33.4738],[126.937,33.4695],[126.9324,33.4649],[126.9227,33.4766],[126.9129,33.5066],[126.8982,33.519],[126.8499,33.535],[126.8352,33.5446],[126.8234,33.5594],[126.7924,33.5638],[126.7455,33.5606],[126.6647,33.5497],[126.6488,33.5534],[126.5824,33.5293],[126.4849,33.5208],[126.4594,33.5024],[126.3574,33.478],[126.3106,33.4645],[126.2979,33.4417],[126.2707,33.4359],[126.241,33.3928],[126.2062,33.3756],[126.1958,33.3667],[126.179,33.3415],[126.1611,33.3008]]],[[[126.2204,34.9224],[126.2254,34.9134],[126.2376,34.9131],[126.2464,34.9162],[126.2502,34.9189],[126.2534,34.9292],[126.2532,34.9335],[126.2473,34.9355],[126.2302,34.9355],[126.2224,34.932],[126.2204,34.9224]]],[[[126.2205,37.7713],[126.2245,37.7604],[126.2341,37.7606],[126.2454,37.7654],[126.2546,37.7682],[126.2962,37.7611],[126.3182,37.7623],[126.3359,37.7744],[126.3425,37.7921],[126.3333,37.8004],[126.315,37.8027],[126.2953,37.8025],[126.2765,37.8115],[126.2605,37.8148],[126.2464,37.8118],[126.2341,37.8023],[126.2227,37.7747],[126.2205,37.7713]]],[[[126.2307,34.8546],[126.2368,34.848],[126.2487,34.8447],[126.2635,34.8467],[126.2766,34.852],[126.3062,34.8559],[126.3103,34.8541],[126.3382,34.8415],[126.3408,34.8375],[126.3377,34.8317],[126.3313,34.8258],[126.3421,34.8225],[126.3617,34.8374],[126.3596,34.8586],[126.3407,34.8641],[126.3265,34.8642],[126.3201,34.8659],[126.3187,34.8706],[126.3181,34.8765],[126.32,34.8811],[126.3352,34.8894],[126.3439,34.8903],[126.3452,34.8962],[126.3325,34.9067],[126.3147,34.9141],[126.2974,34.9175],[126.2865,34.9129],[126.2898,34.903],[126.2976,34.8942],[126.2971,34.8869],[126.2927,34.8807],[126.2801,34.8775],[126.2791,34.8733],[126.2759,34.8705],[126.2723,34.8668],[126.252,34.8607],[126.2361,34.8598],[126.2307,34.8546]]],[[[126.2505,35.581],[126.2537,35.5744],[126.2581,35.5706],[126.2638,35.5717],[126.2671,35.5741],[126.2749,35.579],[126.2873,35.5903],[126.3057,35.6032],[126.3094,35.6107],[126.3073,35.6166],[126.303,35.6193],[126.2993,35.616],[126.2918,35.611],[126.2804,35.6127],[126.2761,35.6129],[126.2778,35.6074],[126.2743,35.606],[126.2682,35.6052],[126.2645,35.6009],[126.259,35.5984],[126.2565,35.596],[126.2615,35.5934],[126.263,35.5918],[126.2525,35.5873],[126.2505,35.581]]],[[[126.282,37.6993],[126.3499,37.6574],[126.3701,37.6584],[126.3807,37.6692],[126.3788,37.6787],[126.3692,37.6873],[126.3567,37.6951],[126.343,37.7043],[126.3367,37.7099],[126.3319,37.7165],[126.3307,37.72],[126.3276,37.7383],[126.3262,37.7425],[126.3237,37.7456],[126.32,37.7472],[126.3142,37.7461],[126.3086,37.7423],[126.3037,37.7372],[126.3006,37.7324],[126.2949,37.7136],[126.2908,37.7056],[126.282,37.6993]]],[[[126.3148,36.5818],[126.3252,36.5539],[126.3298,36.5317],[126.3336,36.4951],[126.3281,36.4711],[126.3386,36.4756],[126.3433,36.4666],[126.3569,36.4796],[126.3638,36.4735],[126.3457,36.4533],[126.3426,36.4384],[126.3538,36.4341],[126.3776,36.4462],[126.3736,36.4373],[126.3659,36.4316],[126.3611,36.4263],[126.3638,36.4114],[126.3782,36.4095],[126.4226,36.4115],[126.4321,36.4079],[126.4264,36.4236],[126.4129,36.4403],[126.4054,36.4588],[126.4027,36.4684],[126.4037,36.4733],[126.4048,36.4796],[126.3906,36.486],[126.3838,36.4871],[126.3838,36.4933],[126.4048,36.4933],[126.3959,36.5058],[126.3846,36.5112],[126.3794,36.5184],[126.3838,36.5265],[126.3811,36.5363],[126.3643,36.567],[126.3634,36.5738],[126.371,36.5788],[126.3753,36.5861],[126.3735,36.5922],[126.3602,36.6094],[126.3412,36.6041],[126.3235,36.5909],[126.3148,36.5818]]],[[[126.3555,37.4662],[126.3582,37.461],[126.3691,37.4527],[126.3713,37.4473],[126.365,37.4423],[126.3757,37.4401],[126.3832,37.4375],[126.3894,37.4413],[126.3934,37.4455],[126.3995,37.4449],[126.402,37.4401],[126.4003,37.4365],[126.4014,37.4345],[126.4047,37.4354],[126.4084,37.4385],[126.4163,37.4346],[126.4205,37.4224],[126.4244,37.4216],[126.4336,37.4224],[126.4434,37.4206],[126.487,37.4468],[126.494,37.4566],[126.5066,37.4656],[126.5299,37.4737],[126.5406,37.4777],[126.5483,37.4766],[126.5658,37.48],[126.5692,37.4836],[126.5776,37.4886],[126.5831,37.4904],[126.5806,37.4956],[126.5764,37.5024],[126.5711,37.5063],[126.5672,37.5112],[126.5633,37.5144],[126.5551,37.5177],[126.5491,37.5186],[126.5435,37.5189],[126.5378,37.5207],[126.532,37.5233],[126.5264,37.5251],[126.5148,37.5343],[126.5007,37.5302],[126.4937,37.5078],[126.4734,37.4993],[126.4513,37.4997],[126.4189,37.4969],[126.3736,37.4716],[126.3653,37.4751],[126.3593,37.4736],[126.3555,37.4662]]],[[[126.367,37.7272],[126.3692,37.7191],[126.4048,37.6652],[126.4099,37.6597],[126.4155,37.6567],[126.4167,37.6518],[126.4082,37.6413],[126.4009,37.6374],[126.3701,37.631],[126.3906,37.6093],[126.4102,37.602],[126.4627,37.6043],[126.4666,37.6062],[126.4707,37.6096],[126.4761,37.6111],[126.4837,37.6074],[126.4942,37.5984],[126.5002,37.5962],[126.5078,37.5969],[126.5178,37.6038],[126.5291,37.6249],[126.542,37.631],[126.5388,37.6354],[126.5332,37.6461],[126.5277,37.6515],[126.5309,37.6599],[126.5277,37.6959],[126.5256,37.7033],[126.5163,37.7168],[126.514,37.7235],[126.5151,37.7296],[126.5204,37.7431],[126.5215,37.7512],[126.5164,37.7672],[126.5036,37.7774],[126.4714,37.7902],[126.4563,37.8012],[126.4413,37.8153],[126.4253,37.8244],[126.4071,37.8207],[126.3835,37.799],[126.3738,37.7961],[126.3696,37.7853],[126.3706,37.738],[126.367,37.7272]]],[[[126.4334,37.251],[126.4357,37.2384],[126.4422,37.2352],[126.4505,37.2358],[126.4582,37.2313],[126.4695,37.2335],[126.4782,37.2416],[126.479,37.2477],[126.4832,37.2543],[126.4939,37.2573],[126.4983,37.2614],[126.4944,37.2735],[126.4841,37.279],[126.4612,37.2806],[126.4435,37.2731],[126.4353,37.264],[126.4334,37.251]]],[[[126.5064,34.154],[126.5071,34.1389],[126.5178,34.1271],[126.5369,34.1265],[126.5519,34.134],[126.5619,34.1414],[126.573,34.1477],[126.5764,34.1531],[126.5818,34.1574],[126.5912,34.1576],[126.6003,34.1535],[126.604,34.1522],[126.6058,34.1562],[126.6094,34.1557],[126.6135,34.1525],[126.616,34.157],[126.6077,34.1656],[126.599,34.1686],[126.5933,34.17],[126.582,34.1702],[126.5737,34.168],[126.5679,34.1686],[126.5481,34.1791],[126.5329,34.1791],[126.5151,34.1689],[126.5064,34.154]]],[[[126.5393,37.1981],[126.5625,37.2004],[126.6135,37.2328],[126.6188,37.242],[126.6164,37.2506],[126.6139,37.2552],[126.6087,37.2594],[126.5896,37.2658],[126.5779,37.2711],[126.5737,37.279],[126.5767,37.2877],[126.5735,37.2885],[126.5594,37.2786],[126.543,37.285],[126.5408,37.2829],[126.548,37.2763],[126.5554,37.2661],[126.5608,37.2513],[126.5604,37.2393],[126.5474,37.2275],[126.5519,37.2217],[126.5505,37.2149],[126.5396,37.2031],[126.5393,37.1981]]],[[[126.5488,34.1946],[126.5498,34.1912],[126.5545,34.1904],[126.5588,34.1892],[126.5607,34.1851],[126.5686,34.179],[126.5838,34.1756],[126.5889,34.1791],[126.584,34.1863],[126.5921,34.1876],[126.6066,34.1883],[126.6101,34.1997],[126.617,34.2045],[126.6162,34.2133],[126.6122,34.2182],[126.6069,34.2214],[126.5962,34.226],[126.5754,34.2289],[126.5676,34.2324],[126.5597,34.2345],[126.5564,34.2321],[126.5615,34.2252],[126.5622,34.2223],[126.5598,34.2202],[126.5562,34.2187],[126.5553,34.2165],[126.5573,34.2141],[126.5569,34.211],[126.554,34.2065],[126.5488,34.1946]]],[[[126.6365,34.1415],[126.6387,34.1281],[126.6438,34.1272],[126.6486,34.124],[126.6504,34.1194],[126.6555,34.1168],[126.6654,34.1191],[126.6704,34.1269],[126.6704,34.137],[126.6719,34.143],[126.6763,34.1435],[126.6795,34.1466],[126.676,34.1514],[126.672,34.1533],[126.6619,34.1657],[126.6636,34.1733],[126.6731,34.1801],[126.6707,34.1899],[126.6538,34.1971],[126.6453,34.1972],[126.6448,34.1938],[126.6365,34.1872],[126.6384,34.1826],[126.645,34.1775],[126.6428,34.1646],[126.6365,34.1415]]],[[[126.641,34.3603],[126.6419,34.348],[126.6449,34.3371],[126.6519,34.3298],[126.6636,34.3234],[126.6766,34.3205],[126.687,34.3227],[126.6956,34.3208],[126.6981,34.3134],[126.6888,34.3076],[126.689,34.3011],[126.7078,34.2956],[126.7229,34.2927],[126.7317,34.2894],[126.7365,34.2917],[126.7375,34.2976],[126.7417,34.2982],[126.7494,34.2941],[126.7583,34.2909],[126.7632,34.2898],[126.7681,34.2892],[126.7715,34.2919],[126.7659,34.303],[126.7639,34.3092],[126.7456,34.3242],[126.7425,34.3327],[126.7371,34.3389],[126.7339,34.3462],[126.7311,34.362],[126.7219,34.3813],[126.71,34.3929],[126.6992,34.3989],[126.6878,34.402],[126.6702,34.4006],[126.6644,34.3995],[126.6537,34.3952],[126.6458,34.3856],[126.6418,34.373],[126.641,34.3603]]],[[[126.7532,34.3869],[126.7576,34.3832],[126.7625,34.383],[126.7673,34.38],[126.7694,34.3713],[126.7692,34.361],[126.7757,34.3547],[126.7811,34.3579],[126.784,34.3686],[126.7933,34.3789],[126.8197,34.3891],[126.8247,34.3952],[126.8333,34.397],[126.8538,34.3918],[126.8611,34.3928],[126.8602,34.3989],[126.8535,34.4069],[126.8459,34.414],[126.8366,34.4186],[126.8358,34.421],[126.841,34.4255],[126.8402,34.4321],[126.8355,34.4381],[126.823,34.4398],[126.8023,34.4358],[126.7825,34.4267],[126.7684,34.4114],[126.7615,34.3987],[126.7568,34.3929],[126.7532,34.3869]]],[[[126.7576,34.3361],[126.759,34.3327],[126.7811,34.3247],[126.7849,34.3226],[126.7887,34.3209],[126.7984,34.3209],[126.8103,34.3244],[126.8206,34.3256],[126.8283,34.3229],[126.8337,34.3168],[126.8357,34.3091],[126.8406,34.3034],[126.8496,34.3049],[126.8539,34.3085],[126.8589,34.3122],[126.8682,34.3136],[126.8768,34.3122],[126.8831,34.3179],[126.884,34.3249],[126.8856,34.3283],[126.8914,34.3339],[126.8933,34.3413],[126.8845,34.3455],[126.8704,34.3484],[126.8592,34.3494],[126.855,34.3487],[126.8508,34.3485],[126.8435,34.35],[126.8377,34.3537],[126.8275,34.3516],[126.814,34.3425],[126.8029,34.3387],[126.7938,34.3422],[126.7859,34.3432],[126.7822,34.3418],[126.7778,34.3397],[126.7678,34.3372],[126.7576,34.3361]]],[[[126.8491,34.1744],[126.8532,34.159],[126.8569,34.1572],[126.8604,34.1622],[126.867,34.1628],[126.876,34.1561],[126.887,34.1514],[126.9019,34.1524],[126.9136,34.1577],[126.9199,34.167],[126.9224,34.1723],[126.925,34.1849],[126.919,34.1905],[126.9094,34.1977],[126.8993,34.2097],[126.8822,34.2133],[126.8679,34.2075],[126.8609,34.2018],[126.8569,34.1943],[126.8553,34.1848],[126.8491,34.1744]]],[[[126.9915,34.3563],[126.9943,34.3547],[127.0008,34.3529],[127.0176,34.3515],[127.0243,34.3482],[127.0266,34.3432],[127.0237,34.3392],[127.0456,34.3354],[127.0492,34.3314],[127.0428,34.3279],[127.0379,34.3217],[127.0388,34.3129],[127.0491,34.3167],[127.0667,34.3282],[127.074,34.3342],[127.0679,34.3371],[127.0653,34.3398],[127.0724,34.3421],[127.0824,34.3403],[127.0908,34.3367],[127.0969,34.3378],[127.095,34.3425],[127.0916,34.3449],[127.0855,34.3514],[127.082,34.3559],[127.0774,34.3593],[127.0674,34.3584],[127.0537,34.3548],[127.0459,34.3577],[127.0422,34.3667],[127.0357,34.3747],[127.0286,34.3804],[127.0254,34.3813],[127.0262,34.3787],[127.0163,34.3719],[127.007,34.3626],[127.0012,34.3594],[126.9938,34.3581],[126.9915,34.3563]]],[[[127.1105,34.4649],[127.1199,34.4597],[127.1238,34.4552],[127.1228,34.4506],[127.1174,34.445],[127.1174,34.4376],[127.1413,34.4243],[127.153,34.4196],[127.169,34.4177],[127.2102,34.424],[127.2287,34.4302],[127.2419,34.4455],[127.2451,34.4641],[127.2342,34.4803],[127.2206,34.4857],[127.2043,34.4868],[127.173,34.4837],[127.1403,34.4787],[127.1244,34.4733],[127.1105,34.4649]]],[[[127.2783,34.0446],[127.2808,34.0378],[127.2839,34.0346],[127.2876,34.0324],[127.2898,34.0241],[127.2932,34.0172],[127.2957,34.0141],[127.3093,34.0115],[127.3235,34.0058],[127.3247,34.0107],[127.3221,34.0141],[127.315,34.0158],[127.3091,34.0201],[127.2964,34.0376],[127.2947,34.0479],[127.2981,34.0572],[127.2957,34.0615],[127.2942,34.0611],[127.2915,34.0585],[127.2869,34.0573],[127.2832,34.0583],[127.28,34.0574],[127.2793,34.0533],[127.2798,34.0487],[127.2783,34.0446]]],[[[127.4522,34.453],[127.4588,34.4489],[127.4697,34.4432],[127.4671,34.4392],[127.4717,34.434],[127.4818,34.4313],[127.4885,34.4255],[127.4889,34.4169],[127.4946,34.4143],[127.5106,34.4183],[127.5288,34.428],[127.5364,34.4348],[127.5364,34.4407],[127.5319,34.4506],[127.5099,34.47],[127.5007,34.4696],[127.4917,34.4622],[127.4871,34.4612],[127.4868,34.4639],[127.4728,34.4668],[127.4653,34.4704],[127.4583,34.4729],[127.4534,34.4706],[127.4551,34.4661],[127.4557,34.4605],[127.4522,34.453]]],[[[127.7075,34.5339],[127.7146,34.5268],[127.7228,34.5232],[127.7277,34.517],[127.7322,34.5085],[127.742,34.5023],[127.7565,34.4982],[127.7658,34.494],[127.7691,34.4899],[127.7712,34.4882],[127.7793,34.4885],[127.7918,34.492],[127.794,34.4982],[127.7896,34.504],[127.783,34.507],[127.7749,34.5082],[127.7744,34.5118],[127.7762,34.5188],[127.7611,34.5431],[127.7481,34.5511],[127.7297,34.5491],[127.7129,34.5424],[127.7075,34.5339]]],[[[127.7359,34.6252],[127.74,34.6137],[127.7754,34.584],[127.7866,34.579],[127.7979,34.5797],[127.8079,34.5882],[127.8151,34.602],[127.8181,34.6162],[127.8172,34.6308],[127.8088,34.6558],[127.8016,34.6705],[127.7925,34.6824],[127.7821,34.6846],[127.7942,34.6938],[127.7993,34.7048],[127.7966,34.7142],[127.7859,34.7182],[127.7734,34.717],[127.7625,34.7128],[127.7608,34.7047],[127.7759,34.6915],[127.7683,34.6661],[127.765,34.6601],[127.7463,34.6484],[127.7419,34.6436],[127.7359,34.6252]]],[[[127.8267,34.8514],[127.8303,34.8336],[127.8579,34.7597],[127.8601,34.747],[127.8604,34.7383],[127.8618,34.7309],[127.868,34.7219],[127.8771,34.7169],[127.8921,34.7127],[127.9063,34.7131],[127.9124,34.7219],[127.9157,34.7427],[127.9246,34.7596],[127.9377,34.767],[127.9541,34.7597],[127.9653,34.7193],[127.9753,34.6999],[127.9915,34.7017],[128.0101,34.7088],[128.0259,34.7031],[128.0405,34.6959],[128.0559,34.6982],[128.0601,34.7084],[128.0516,34.7287],[128.0596,34.7324],[128.0653,34.7375],[128.0661,34.7493],[128.0633,34.77],[128.0663,34.783],[128.0718,34.7936],[128.0747,34.8037],[128.0696,34.815],[128.0628,34.8171],[128.0291,34.8218],[128.0059,34.8177],[127.9813,34.8098],[127.9619,34.807],[127.9499,34.8247],[127.9285,34.8306],[127.9199,34.8354],[127.9143,34.8445],[127.9097,34.862],[127.9056,34.869],[127.9281,34.8883],[127.9369,34.9008],[127.9382,34.914],[127.9305,34.9265],[127.9172,34.9362],[127.9021,34.94],[127.8889,34.9348],[127.8729,34.9245],[127.867,34.9182],[127.8623,34.8961],[127.8563,34.8927],[127.8485,34.8915],[127.8408,34.8869],[127.8294,34.869],[127.8267,34.8514]]],[[[127.9636,34.8598],[127.9724,34.8455],[127.9873,34.8381],[128.0018,34.8367],[128.0265,34.8432],[128.0718,34.8334],[128.0824,34.8356],[128.0768,34.8425],[128.0728,34.8451],[128.0669,34.8518],[128.0612,34.8684],[128.0589,34.8804],[128.054,34.8826],[128.0488,34.8866],[128.0459,34.8936],[128.0363,34.8923],[128.0246,34.877],[128.0187,34.8662],[128.0134,34.8691],[128.0125,34.8783],[128.016,34.8893],[128.023,34.9055],[128.0178,34.9166],[128.002,34.913],[127.9928,34.9034],[127.9841,34.8897],[127.9705,34.8752],[127.9636,34.8598]]],[[[128.2058,34.8156],[128.2122,34.8078],[128.2232,34.8015],[128.229,34.7991],[128.2385,34.7969],[128.2415,34.8],[128.2407,34.8071],[128.2458,34.8093],[128.2565,34.8093],[128.2605,34.8146],[128.2549,34.8224],[128.2399,34.8362],[128.2273,34.8386],[128.2139,34.8302],[128.207,34.821],[128.2058,34.8156]]],[[[128.2253,34.6328],[128.2297,34.6301],[128.2334,34.6294],[128.2378,34.6258],[128.2388,34.6206],[128.2353,34.6142],[128.2363,34.6105],[128.2422,34.6115],[128.2474,34.6155],[128.2581,34.6199],[128.2659,34.6208],[128.2753,34.6191],[128.2817,34.6199],[128.2861,34.6222],[128.2957,34.632],[128.2971,34.6373],[128.2946,34.6396],[128.2758,34.6319],[128.2713,34.6323],[128.2712,34.6385],[128.2395,34.6524],[128.2328,34.651],[128.2288,34.6479],[128.2284,34.6424],[128.2257,34.6378],[128.2253,34.6328]]],[[[128.332,34.8257],[128.3342,34.8191],[128.341,34.8188],[128.3524,34.8218],[128.3704,34.8167],[128.3801,34.8104],[128.3783,34.8028],[128.3687,34.7965],[128.3733,34.7935],[128.3862,34.7919],[128.389,34.7854],[128.387,34.7788],[128.3954,34.7785],[128.3993,34.7707],[128.4065,34.7631],[128.4231,34.7633],[128.4333,34.7738],[128.4373,34.7798],[128.4291,34.7854],[128.4209,34.7867],[128.4206,34.7892],[128.4246,34.7912],[128.4346,34.7879],[128.439,34.7939],[128.4353,34.7987],[128.4406,34.8067],[128.438,34.8196],[128.4282,34.8274],[128.4108,34.8265],[128.3954,34.8233],[128.3858,34.8201],[128.379,34.8229],[128.3672,34.8303],[128.3518,34.8354],[128.3401,34.833],[128.332,34.8257]]],[[[128.4885,34.869],[128.4915,34.8499],[128.5032,34.8355],[128.5174,34.8227],[128.5288,34.8081],[128.5447,34.8188],[128.5806,34.8319],[128.5908,34.8423],[128.6045,34.8354],[128.5991,34.8178],[128.5986,34.8022],[128.5916,34.7912],[128.5667,34.7871],[128.5604,34.7818],[128.5598,34.7702],[128.5643,34.7587],[128.5735,34.7535],[128.6045,34.7665],[128.5995,34.7519],[128.5986,34.74],[128.604,34.7311],[128.6182,34.7256],[128.584,34.7051],[128.6058,34.7064],[128.6782,34.7248],[128.6939,34.7362],[128.6856,34.7438],[128.6691,34.7495],[128.6572,34.757],[128.6629,34.77],[128.6802,34.7866],[128.6833,34.7941],[128.6864,34.8081],[128.6978,34.8013],[128.7166,34.7932],[128.7341,34.7882],[128.7417,34.7907],[128.739,34.8062],[128.7261,34.8288],[128.7206,34.8423],[128.7341,34.8376],[128.7429,34.8445],[128.7474,34.8571],[128.7485,34.869],[128.7476,34.8858],[128.7443,34.8878],[128.7346,34.8823],[128.7144,34.8764],[128.7302,34.9104],[128.7341,34.9223],[128.7344,34.9355],[128.73,34.9451],[128.7239,34.9545],[128.7192,34.9663],[128.7188,34.9722],[128.7253,35.0093],[128.7249,35.0189],[128.7206,35.0272],[128.7029,35.0329],[128.6875,35.0229],[128.6819,35.0046],[128.6939,34.9863],[128.6238,34.9536],[128.6106,34.9549],[128.6117,34.9389],[128.6164,34.9219],[128.627,34.9069],[128.6455,34.8969],[128.6455,34.8907],[128.627,34.8918],[128.6135,34.8972],[128.6004,34.9042],[128.584,34.9099],[128.5737,34.9101],[128.5363,34.9037],[128.5233,34.8992],[128.5081,34.891],[128.4949,34.8804],[128.4885,34.869]]],[[[128.8016,35.0491],[128.8069,35.0412],[128.8103,35.0329],[128.8091,35.0259],[128.8118,35.0207],[128.8193,35.0142],[128.8242,34.9967],[128.8267,34.9924],[128.8318,34.9938],[128.8384,35.0012],[128.8428,35.0219],[128.8433,35.0472],[128.8364,35.0598],[128.8264,35.0622],[128.815,35.0613],[128.8044,35.0563],[128.8016,35.0491]]],[[[130.8058,37.5074],[130.811,37.487],[130.8275,37.4713],[130.8522,37.4595],[130.8777,37.4555],[130.8967,37.4631],[130.9084,37.4819],[130.9194,37.5102],[130.9207,37.5356],[130.9036,37.5458],[130.8916,37.5439],[130.8678,37.5369],[130.8323,37.5321],[130.8143,37.5226],[130.8058,37.5074]]]]}}]}