{"type":"FeatureCollection","features":[{"type":"Feature","geometry":{"type":"MultiPolygon","coordinates":[[[[126.3569,37.4637],[126.3595,37.4601],[126.3684,37.4567],[126.3704,37.4532],[126.3708,37.4501],[126.3716,37.4484],[126.3726,37.4467],[126.373,37.4448],[126.3714,37.4444],[126.3696,37.4442],[126.3682,37.4445],[126.3646,37.4425],[126.3674,37.4415],[126.3707,37.4415],[126.3719,37.4413],[126.3734,37.4412],[126.375,37.4412],[126.3777,37.4399],[126.3789,37.4386],[126.3799,37.4369],[126.3808,37.4356],[126.3814,37.4364],[126.3804,37.4382],[126.3804,37.4395],[126.383,37.44],[126.3875,37.4403],[126.3899,37.4394],[126.3918,37.4425],[126.3931,37.4436],[126.3953,37.4442],[126.398,37.443],[126.3995,37.4421],[126.4025,37.4388],[126.4025,37.4377],[126.4014,37.436],[126.4003,37.4353],[126.4009,37.4334],[126.403,37.435],[126.4051,37.4364],[126.4056,37.4378],[126.409,37.4379],[126.4137,37.4347],[126.4172,37.4302],[126.4197,37.4254],[126.4198,37.4244],[126.4199,37.4225],[126.4216,37.4216],[126.4244,37.422],[126.4418,37.4204],[126.4884,37.4483],[126.4947,37.4564],[126.5086,37.4666],[126.5198,37.4698],[126.5247,37.4724],[126.529,37.4745],[126.5343,37.4755],[126.5413,37.4761],[126.5479,37.4766],[126.5535,37.4779],[126.5598,37.4792],[126.5641,37.4808],[126.5684,37.4826],[126.5713,37.4855],[126.5753,37.4879],[126.5826,37.4897],[126.5756,37.5046],[126.569,37.5083],[126.5654,37.5122],[126.5621,37.5149],[126.5584,37.517],[126.5542,37.5175],[126.5495,37.518],[126.5439,37.5196],[126.5378,37.5234],[126.5331,37.5244],[126.5304,37.5244],[126.5268,37.5249],[126.5236,37.5288],[126.5206,37.5308],[126.5168,37.5315],[126.516,37.5337],[126.5128,37.534],[126.5088,37.532],[126.5054,37.531],[126.4999,37.5308],[126.4978,37.5295],[126.4961,37.5255],[126.4944,37.5137],[126.4953,37.5135],[126.4932,37.5068],[126.4737,37.4986],[126.4661,37.4986],[126.4517,37.5],[126.4473,37.4989],[126.4437,37.4988],[126.439,37.4986],[126.421,37.4955],[126.3899,37.4795],[126.3969,37.4706],[126.3919,37.4685],[126.3767,37.4682],[126.3711,37.4734],[126.3635,37.4753],[126.3589,37.474],[126.3572,37.4708],[126.3572,37.4669],[126.3569,37.4637]]],[[[126.3956,37.3924],[126.3972,37.3914],[126.3986,37.3918],[126.4003,37.392],[126.4019,37.3914],[126.4038,37.3922],[126.4049,37.3912],[126.4068,37.3895],[126.4084,37.3863],[126.4091,37.3819],[126.4098,37.3779],[126.4088,37.3748],[126.4124,37.3695],[126.4187,37.3661],[126.4213,37.3674],[126.425,37.3695],[126.4289,37.3693],[126.4332,37.3695],[126.4355,37.3711],[126.4329,37.3721],[126.4349,37.3756],[126.4388,37.3763],[126.4398,37.3774],[126.4385,37.379],[126.4352,37.38],[126.4368,37.3821],[126.4405,37.3813],[126.4421,37.3845],[126.4402,37.3866],[126.4329,37.3897],[126.4296,37.3921],[126.4276,37.3955],[126.425,37.3987],[126.4197,37.4013],[126.4147,37.4052],[126.4147,37.4094],[126.4081,37.412],[126.4067,37.4114],[126.4048,37.4109],[126.4046,37.4097],[126.4049,37.4087],[126.4046,37.4074],[126.404,37.4057],[126.4029,37.404],[126.4018,37.4028],[126.4005,37.402],[126.4002,37.4011],[126.4011,37.4],[126.4013,37.3989],[126.3999,37.3983],[126.3998,37.3966],[126.3986,37.3952],[126.3969,37.3939],[126.3956,37.3924]]],[[[126.5933,37.4493],[126.5941,37.4384],[126.6009,37.4383],[126.6111,37.4542],[126.6137,37.4531],[126.6109,37.4481],[126.6185,37.4447],[126.6168,37.4415],[126.61,37.4443],[126.6081,37.441],[126.6154,37.4379],[126.6103,37.4304],[126.6107,37.4299],[126.6118,37.4301],[126.6331,37.4301],[126.6323,37.4199],[126.6372,37.4197],[126.6413,37.4184],[126.6557,37.416],[126.6697,37.4156],[126.6795,37.4209],[126.6929,37.427],[126.696,37.432],[126.6991,37.4295],[126.6991,37.427],[126.6996,37.4234],[126.6996,37.4233],[126.6996,37.4229],[126.695,37.4139],[126.6898,37.4061],[126.6836,37.402],[126.6769,37.3983],[126.6717,37.3942],[126.6694,37.3909],[126.6847,37.3856],[126.7001,37.3852],[126.7172,37.3827],[126.7213,37.3774],[126.7211,37.3772],[126.7213,37.377],[126.7204,37.376],[126.7349,37.3773],[126.7363,37.3774],[126.7445,37.3844],[126.7471,37.3893],[126.7466,37.3934],[126.7554,37.4008],[126.759,37.4065],[126.7673,37.4143],[126.7729,37.4193],[126.7745,37.4266],[126.776,37.4361],[126.7812,37.4414],[126.7838,37.4463],[126.7833,37.4545],[126.781,37.455],[126.7497,37.482],[126.7451,37.4881],[126.7445,37.4906],[126.7466,37.4943],[126.7507,37.4975],[126.7533,37.4992],[126.7569,37.5008],[126.7595,37.5024],[126.7652,37.5057],[126.7642,37.5164],[126.7642,37.5164],[126.7569,37.516],[126.7476,37.5151],[126.6903,37.5164],[126.6898,37.5098],[126.6898,37.4979],[126.6939,37.4938],[126.6976,37.4889],[126.6976,37.4803],[126.6965,37.475],[126.6909,37.4693],[126.6884,37.4619],[126.6857,37.4639],[126.6779,37.4668],[126.6718,37.4691],[126.6738,37.4705],[126.6676,37.4758],[126.6578,37.4799],[126.6464,37.4828],[126.6263,37.4828],[126.6142,37.4828],[126.6232,37.4719],[126.6139,37.4832],[126.6126,37.4827],[126.6158,37.4775],[126.6141,37.4775],[126.6114,37.4818],[126.605,37.4803],[126.6043,37.4814],[126.6096,37.4826],[126.6077,37.4867],[126.6064,37.4864],[126.6074,37.4841],[126.6062,37.4838],[126.6055,37.4849],[126.6033,37.484],[126.6032,37.4823],[126.6008,37.4814],[126.5944,37.4703],[126.5964,37.4698],[126.5979,37.4694],[126.5986,37.469],[126.5991,37.4679],[126.5995,37.4673],[126.5999,37.467],[126.6002,37.4668],[126.6002,37.4664],[126.6037,37.4658],[126.6038,37.4664],[126.6058,37.4664],[126.6079,37.4671],[126.61,37.469],[126.607,37.4757],[126.6124,37.4771],[126.6155,37.4702],[126.6154,37.4683],[126.6143,37.4666],[126.621,37.464],[126.6197,37.4613],[126.6254,37.4592],[126.6246,37.4577],[126.6123,37.4623],[126.6033,37.4602],[126.6028,37.461],[126.6045,37.4635],[126.6049,37.4649],[126.6002,37.4657],[126.5997,37.4649],[126.599,37.4647],[126.596,37.4643],[126.5939,37.4653],[126.5937,37.4651],[126.5955,37.4639],[126.5958,37.4581],[126.5948,37.4571],[126.5951,37.4569],[126.5968,37.4576],[126.5971,37.4577],[126.6002,37.4599],[126.6004,37.4596],[126.6021,37.4603],[126.6029,37.4595],[126.6015,37.4587],[126.6031,37.4566],[126.5992,37.4546],[126.5984,37.4543],[126.5975,37.4543],[126.5943,37.4553],[126.5936,37.4548],[126.5954,37.4529],[126.5949,37.4527],[126.5967,37.451],[126.597,37.4493],[126.5933,37.4493]]]]},"properties":{"id":"incheon"},"id":"incheon"},{"type":"Feature","geometry":{"type":"MultiPolygon","coordinates":[[[[128.9326,35.0914],[128.9344,35.0855],[128.9367,35.0866],[128.9391,35.0884],[128.9404,35.0895],[128.9419,35.0878],[128.9406,35.086],[128.9402,35.0837],[128.9428,35.0855],[128.9443,35.0873],[128.9452,35.0895],[128.9461,35.0945],[128.9465,35.0963],[128.9471,35.0987],[128.9473,35.1015],[128.948,35.1033],[128.9487,35.105],[128.9493,35.1068],[128.9566,35.1066],[128.9575,35.1003],[128.9556,35.0969],[128.9549,35.0934],[128.9539,35.0902],[128.953,35.0872],[128.9513,35.0855],[128.9504,35.0835],[128.959,35.0513],[128.9601,35.0499],[128.9621,35.0472],[128.964,35.0446],[128.9662,35.0438],[128.9677,35.0423],[128.9671,35.0409],[128.966,35.0383],[128.9649,35.0368],[128.9642,35.0356],[128.9649,35.0339],[128.967,35.0321],[128.9664,35.0342],[128.9671,35.0364],[128.9696,35.0367],[128.9716,35.0376],[128.9716,35.0397],[128.9727,35.0409],[128.9757,35.0406],[128.9783,35.0402],[128.9774,35.0412],[128.9733,35.0437],[128.972,35.0438],[128.9696,35.0463],[128.9707,35.0472],[128.9729,35.0485],[128.9738,35.0491],[128.9746,35.0479],[128.9768,35.0479],[128.9794,35.0482],[128.9824,35.0467],[128.982,35.0493],[128.9829,35.0511],[128.9826,35.0523],[128.98,35.0536],[128.9777,35.0537],[128.9737,35.0536],[128.9737,35.0571],[128.9768,35.0568],[128.979,35.0574],[128.9816,35.0586],[128.9854,35.0599],[128.988,35.0578],[128.9908,35.0546],[128.9924,35.0501],[128.9924,35.0467],[128.9937,35.0456],[128.9969,35.0447],[128.9995,35.0469],[129.001,35.0482],[129.0017,35.0491],[128.9958,35.0606],[128.9958,35.0663],[128.9955,35.0701],[128.9947,35.0736],[128.995,35.077],[128.9944,35.0796],[128.9938,35.0822],[128.9947,35.0841],[128.997,35.083],[128.9974,35.0823],[128.9981,35.0806],[129.0012,35.08],[129.0016,35.0811],[128.9996,35.0816],[128.9993,35.0834],[129.0012,35.0838],[129.001,35.0849],[129.0027,35.0847],[129.0022,35.0863],[129.0031,35.0862],[129.0041,35.0857],[129.0045,35.0849],[129.0048,35.0844],[129.0044,35.0818],[129.0043,35.0797],[129.0047,35.0754],[129.0055,35.0712],[129.0094,35.066],[129.0108,35.0656],[129.0122,35.0651],[129.011,35.0632],[129.0085,35.0628],[129.0096,35.0583],[129.0086,35.0578],[129.0116,35.0527],[129.0086,35.0514],[129.0087,35.051],[129.0131,35.0528],[129.0138,35.0527],[129.0142,35.0527],[129.0155,35.0531],[129.0159,35.0535],[129.0162,35.0545],[129.0156,35.0547],[129.0161,35.057],[129.0177,35.0573],[129.0185,35.0583],[129.0189,35.0591],[129.0199,35.0598],[129.0211,35.0606],[129.0217,35.0612],[129.0223,35.0618],[129.022,35.0625],[129.0206,35.0651],[129.021,35.0659],[129.0201,35.0666],[129.0201,35.0672],[129.021,35.068],[129.0206,35.069],[129.0201,35.0697],[129.0195,35.0702],[129.0184,35.0715],[129.0176,35.0737],[129.0173,35.0739],[129.0168,35.0743],[129.0173,35.0754],[129.0182,35.0763],[129.0191,35.0769],[129.0204,35.0773],[129.0212,35.0769],[129.0219,35.0762],[129.023,35.0758],[129.0239,35.0762],[129.0245,35.0768],[129.0267,35.0855],[129.0261,35.0868],[129.0274,35.0873],[129.0272,35.0883],[129.0262,35.088],[129.0257,35.0894],[129.0271,35.0895],[129.0269,35.0905],[129.0258,35.0902],[129.0255,35.0915],[129.0254,35.0932],[129.0255,35.0947],[129.026,35.0955],[129.0276,35.0958],[129.0324,35.0965],[129.0344,35.0971],[129.0359,35.0967],[129.0374,35.097],[129.0382,35.0977],[129.0381,35.1],[129.0398,35.1002],[129.0398,35.1014],[129.0385,35.1021],[129.0382,35.1044],[129.0401,35.1043],[129.0426,35.1022],[129.0435,35.1034],[129.0401,35.1059],[129.0413,35.1071],[129.0438,35.105],[129.0456,35.1055],[129.0431,35.1076],[129.0441,35.1084],[129.0489,35.1118],[129.0512,35.1137],[129.0484,35.1156],[129.05,35.1175],[129.054,35.1151],[129.055,35.116],[129.0501,35.1193],[129.0505,35.1194],[129.0488,35.1206],[129.0501,35.1236],[129.0526,35.1245],[129.0526,35.1253],[129.0536,35.1255],[129.0545,35.1255],[129.0552,35.1252],[129.0552,35.1227],[129.0524,35.1206],[129.0562,35.118],[129.0568,35.1184],[129.0644,35.1269],[129.0644,35.1288],[129.0653,35.1289],[129.0662,35.1328],[129.0653,35.1288],[129.0668,35.1256],[129.0653,35.1231],[129.0684,35.1217],[129.0703,35.1231],[129.0729,35.1218],[129.0699,35.1182],[129.0707,35.1174],[129.072,35.1187],[129.0731,35.1177],[129.0729,35.1158],[129.0716,35.1153],[129.0684,35.1117],[129.0699,35.1104],[129.0679,35.108],[129.0751,35.1036],[129.0902,35.1028],[129.0902,35.1083],[129.0934,35.1076],[129.0952,35.0931],[129.0999,35.0908],[129.1051,35.0923],[129.1032,35.0952],[129.1103,35.1033],[129.1151,35.1007],[129.1186,35.0995],[129.124,35.0993],[129.1242,35.1015],[129.1244,35.1039],[129.1259,35.1068],[129.127,35.1091],[129.1274,35.1109],[129.1274,35.113],[129.1277,35.1153],[129.1279,35.1199],[129.1264,35.1209],[129.1249,35.1229],[129.1236,35.1244],[129.1233,35.1264],[129.1222,35.129],[129.1212,35.1308],[129.119,35.1316],[129.1162,35.1278],[129.1155,35.1282],[129.1166,35.1326],[129.111,35.1357],[129.1134,35.1384],[129.1149,35.1392],[129.1179,35.1402],[129.1179,35.146],[129.1153,35.146],[129.1153,35.1488],[129.1158,35.1503],[129.1166,35.1515],[129.1186,35.1532],[129.1218,35.1547],[129.1231,35.1544],[129.1253,35.1532],[129.1339,35.1547],[129.1348,35.156],[129.1339,35.1577],[129.1311,35.1601],[129.1302,35.1615],[129.1339,35.1624],[129.135,35.1614],[129.1417,35.1531],[129.1495,35.1491],[129.1606,35.1507],[129.1785,35.1495],[129.1843,35.1523],[129.1867,35.163],[129.1911,35.1701],[129.1984,35.1752],[129.208,35.1756],[129.2153,35.1756],[129.2156,35.1858],[129.2093,35.1875],[129.1965,35.1931],[129.1813,35.1943],[129.17,35.1943],[129.1639,35.2153],[129.1586,35.2264],[129.1488,35.24],[129.144,35.2445],[129.1382,35.2499],[129.1314,35.2598],[129.1291,35.269],[129.1307,35.2808],[129.1216,35.2894],[129.114,35.2987],[129.1162,35.3028],[129.0428,35.2755],[129.031,35.2711],[129.0143,35.2707],[129.0086,35.247],[129.0038,35.2315],[128.9942,35.2267],[128.9942,35.2265],[128.9945,35.2267],[128.9918,35.1986],[128.9917,35.1981],[128.9914,35.198],[128.9826,35.1946],[128.9736,35.1886],[128.9663,35.1846],[128.9614,35.1773],[128.9605,35.1626],[128.9597,35.1513],[128.9597,35.1313],[128.9588,35.1218],[128.9486,35.1265],[128.9483,35.1266],[128.9482,35.1265],[128.9466,35.125],[128.9386,35.1183],[128.9353,35.1147],[128.9353,35.1147],[128.9411,35.1135],[128.9409,35.1114],[128.9393,35.1091],[128.9387,35.1068],[128.9368,35.1059],[128.9355,35.1034],[128.9354,35.1015],[128.9342,35.0981],[128.9344,35.0963],[128.9341,35.0945],[128.9333,35.0927],[128.9326,35.0914]],[[129.018,35.1819],[129.0192,35.1834],[129.0193,35.1832],[129.0183,35.1819],[129.018,35.1819]]]]},"properties":{"id":"busan"},"id":"busan"},{"type":"Feature","geometry":{"type":"MultiPolygon","coordinates":[[[[128.9771,35.5538],[128.99,35.539],[128.9968,35.5335],[128.9986,35.5305],[129.0006,35.5274],[129.0278,35.5163],[129.0399,35.5113],[129.0747,35.5033],[129.0928,35.4972],[129.114,35.4812],[129.1269,35.4553],[129.1481,35.4399],[129.1579,35.4331],[129.167,35.4282],[129.1798,35.4288],[129.2025,35.4282],[129.2101,35.419],[129.2116,35.4128],[129.2123,35.4048],[129.2101,35.3968],[129.204,35.3918],[129.1995,35.3857],[129.1995,35.3789],[129.2024,35.3771],[129.2123,35.3709],[129.2229,35.3727],[129.2335,35.3746],[129.2479,35.3795],[129.2592,35.3789],[129.2653,35.3752],[129.2713,35.3665],[129.2774,35.361],[129.2812,35.3554],[129.2857,35.3425],[129.294,35.3227],[129.3001,35.324],[129.3107,35.3289],[129.3235,35.3431],[129.3265,35.3499],[129.3349,35.3548],[129.3439,35.3561],[129.3575,35.3561],[129.3591,35.3647],[129.347,35.3721],[129.3409,35.3807],[129.3515,35.39],[129.3651,35.3974],[129.3621,35.4116],[129.3591,35.4233],[129.3636,35.4344],[129.3613,35.4418],[129.3515,35.4485],[129.3439,35.4565],[129.3311,35.467],[129.3175,35.4787],[129.3046,35.4861],[129.2917,35.4929],[129.2842,35.5082],[129.2879,35.503],[129.2927,35.4966],[129.3015,35.4943],[129.3102,35.4876],[129.3189,35.4825],[129.3271,35.4785],[129.3349,35.4793],[129.3397,35.4769],[129.3455,35.4726],[129.3499,35.4647],[129.3566,35.4584],[129.3668,35.4541],[129.3712,35.456],[129.375,35.4624],[129.3779,35.4639],[129.3813,35.4667],[129.3818,35.4691],[129.3794,35.4722],[129.3833,35.4754],[129.3837,35.4789],[129.3862,35.4844],[129.3862,35.4911],[129.3818,35.4947],[129.377,35.4998],[129.3712,35.499],[129.3624,35.5057],[129.3687,35.5045],[129.375,35.5018],[129.3813,35.5026],[129.3871,35.5033],[129.3862,35.5104],[129.3847,35.5163],[129.3808,35.5171],[129.3755,35.5183],[129.3736,35.523],[129.3745,35.5309],[129.3712,35.5345],[129.3658,35.5384],[129.36,35.5423],[129.3583,35.5494],[129.3639,35.5471],[129.3736,35.5427],[129.3808,35.5341],[129.3944,35.5171],[129.3978,35.5171],[129.3968,35.5061],[129.3958,35.503],[129.3992,35.5002],[129.4041,35.4998],[129.4084,35.497],[129.4084,35.4899],[129.407,35.4868],[129.4041,35.4817],[129.405,35.475],[129.4133,35.4722],[129.4162,35.4758],[129.4157,35.4797],[129.4191,35.4813],[129.423,35.4832],[129.4273,35.484],[129.4322,35.4805],[129.4375,35.4836],[129.4389,35.4872],[129.4389,35.4903],[129.4433,35.4915],[129.4428,35.4947],[129.4389,35.4943],[129.4346,35.4907],[129.4307,35.4923],[129.4317,35.4959],[129.4336,35.4998],[129.437,35.501],[129.4423,35.5022],[129.4423,35.5061],[129.4365,35.5057],[129.4326,35.5061],[129.4341,35.5108],[129.4375,35.5108],[129.4452,35.51],[129.4457,35.5163],[129.4457,35.5183],[129.4481,35.523],[129.4457,35.5238],[129.4394,35.5211],[129.4384,35.5278],[129.4423,35.529],[129.4476,35.5274],[129.4539,35.529],[129.453,35.5372],[129.4525,35.542],[129.4525,35.5455],[129.453,35.549],[129.4568,35.5522],[129.4573,35.5561],[129.4573,35.5636],[129.4564,35.5668],[129.4534,35.5731],[129.4544,35.5809],[129.4583,35.5864],[129.4636,35.5916],[129.4626,35.5975],[129.4612,35.6038],[129.4583,35.6105],[129.4554,35.6156],[129.452,35.6199],[129.4491,35.6227],[129.4457,35.6262],[129.4428,35.6297],[129.4413,35.6348],[129.4404,35.6415],[129.4434,35.6465],[129.4009,35.659],[129.3855,35.6657],[129.3654,35.6695],[129.3477,35.6724],[129.3217,35.6638],[129.3064,35.6551],[129.2969,35.6465],[129.278,35.6465],[129.2709,35.6484],[129.2603,35.6657],[129.2638,35.6734],[129.2744,35.6791],[129.2709,35.6887],[129.2461,35.6993],[129.2248,35.705],[129.2059,35.7108],[129.1917,35.7118],[129.1811,35.7098],[129.1634,35.7098],[129.1421,35.7127],[129.1256,35.7079],[129.1019,35.7031],[129.0913,35.6993],[129.0795,35.6926],[129.07,35.6724],[129.0712,35.659],[129.07,35.6446],[129.0499,35.6388],[129.0248,35.6276],[129.0172,35.6221],[129.0112,35.6178],[129.0081,35.6098],[129.0127,35.6055],[129.0255,35.5963],[129.0255,35.5901],[129.018,35.5809],[129.0119,35.5772],[128.9923,35.568],[128.9854,35.5655],[128.9771,35.5538]],[[129.2498,35.527],[129.2545,35.527],[129.2647,35.5258],[129.2753,35.5203],[129.2802,35.514],[129.2841,35.5083],[129.2721,35.5194],[129.263,35.5224],[129.2509,35.5261],[129.2498,35.527]]]]},"properties":{"id":"ulsan"},"id":"ulsan"},{"type":"Feature","geometry":{"type":"MultiPolygon","coordinates":[[[[126.1725,33.3238],[126.1737,33.3111],[126.1737,33.2911],[126.1756,33.2703],[126.1813,33.2608],[126.1921,33.2547],[126.205,33.2483],[126.2169,33.2431],[126.2282,33.2405],[126.2344,33.2349],[126.2396,33.2236],[126.2463,33.2176],[126.2561,33.2115],[126.2618,33.2025],[126.267,33.1938],[126.2773,33.1973],[126.2825,33.2003],[126.2886,33.1951],[126.2948,33.199],[126.2943,33.2038],[126.2933,33.209],[126.2923,33.215],[126.2974,33.2215],[126.3057,33.2271],[126.3145,33.2344],[126.3253,33.2392],[126.332,33.2388],[126.3398,33.2353],[126.3475,33.2353],[126.3539,33.2351],[126.3602,33.2362],[126.3645,33.2345],[126.3675,33.2323],[126.3721,33.2326],[126.377,33.2328],[126.3833,33.234],[126.3866,33.2351],[126.3906,33.2375],[126.3969,33.2417],[126.4061,33.2445],[126.4144,33.2433],[126.4213,33.2392],[126.4306,33.2353],[126.4372,33.2381],[126.4494,33.2403],[126.4534,33.2409],[126.46,33.2367],[126.4633,33.2323],[126.4706,33.2257],[126.4838,33.2273],[126.4887,33.2298],[126.493,33.2326],[126.5033,33.2315],[126.5076,33.2317],[126.5128,33.2328],[126.5168,33.2364],[126.5201,33.2409],[126.5267,33.2406],[126.532,33.2395],[126.5376,33.2414],[126.5416,33.2409],[126.5475,33.2392],[126.5555,33.24],[126.5651,33.2417],[126.5703,33.2433],[126.5812,33.2439],[126.5895,33.2422],[126.5938,33.237],[126.6001,33.2373],[126.6107,33.2406],[126.6179,33.2436],[126.6212,33.2483],[126.6325,33.2541],[126.6358,33.258],[126.6407,33.2649],[126.6536,33.2699],[126.6649,33.2699],[126.6764,33.2677],[126.6893,33.2674],[126.7012,33.2707],[126.7121,33.2754],[126.728,33.2776],[126.7342,33.2795],[126.7399,33.2795],[126.7471,33.2826],[126.7547,33.2887],[126.7623,33.2956],[126.7689,33.303],[126.7772,33.3052],[126.7861,33.3022],[126.7941,33.3003],[126.802,33.3005],[126.8102,33.3019],[126.8152,33.3055],[126.8215,33.3072],[126.8297,33.3077],[126.8347,33.311],[126.84,33.3157],[126.8446,33.319],[126.8453,33.3257],[126.84,33.3259],[126.836,33.3279],[126.8383,33.3304],[126.8463,33.3345],[126.8515,33.3375],[126.8578,33.3425],[126.8611,33.3455],[126.8654,33.3505],[126.8677,33.3533],[126.8684,33.3616],[126.8707,33.3673],[126.8743,33.3729],[126.8777,33.3781],[126.8826,33.3834],[126.8942,33.388],[126.8981,33.3897],[126.9038,33.3911],[126.9054,33.3952],[126.9047,33.3991],[126.9034,33.4024],[126.9044,33.4051],[126.9077,33.4082],[126.9097,33.4123],[126.9097,33.4159],[126.9144,33.4249],[126.9161,33.427],[126.917,33.429],[126.9159,33.4327],[126.917,33.435],[126.9203,33.435],[126.9233,33.4341],[126.925,33.432],[126.9256,33.4295],[126.9235,33.4277],[126.9303,33.4235],[126.9356,33.4307],[126.9237,33.4367],[126.9222,33.4436],[126.9211,33.4492],[126.9206,33.457],[126.9227,33.463],[126.9232,33.4695],[126.9165,33.4716],[126.902,33.4755],[126.9028,33.4785],[126.9014,33.4818],[126.9005,33.4884],[126.9054,33.4881],[126.9087,33.4892],[126.9084,33.4934],[126.9081,33.4964],[126.9123,33.5038],[126.911,33.5091],[126.9084,33.5107],[126.9024,33.5107],[126.8998,33.5127],[126.8998,33.5165],[126.8988,33.5212],[126.8942,33.5251],[126.8856,33.5284],[126.8816,33.5284],[126.8753,33.5292],[126.8661,33.5275],[126.8595,33.5264],[126.8492,33.5325],[126.8439,33.5341],[126.8357,33.5413],[126.8281,33.5446],[126.8274,33.5498],[126.8254,33.5559],[126.8231,33.5592],[126.8178,33.5595],[126.8129,33.5587],[126.8089,33.557],[126.803,33.5567],[126.7977,33.5565],[126.7917,33.5595],[126.7878,33.5617],[126.7818,33.5631],[126.7755,33.5636],[126.767,33.5642],[126.7623,33.5606],[126.758,33.5567],[126.7494,33.5559],[126.7415,33.5556],[126.7362,33.5581],[126.7309,33.5595],[126.7247,33.5589],[126.7174,33.5551],[126.7118,33.5537],[126.7022,33.554],[126.6949,33.5529],[126.69,33.5504],[126.683,33.5498],[126.6781,33.5523],[126.6748,33.5479],[126.6731,33.5446],[126.6658,33.5441],[126.6576,33.5485],[126.6503,33.552],[126.6467,33.5545],[126.6411,33.5515],[126.6364,33.5476],[126.6331,33.5424],[126.6338,33.5391],[126.6292,33.5369],[126.6219,33.5388],[126.6169,33.5394],[126.607,33.5358],[126.5968,33.5372],[126.5928,33.5341],[126.5888,33.5284],[126.5816,33.5248],[126.574,33.5267],[126.5677,33.5273],[126.5618,33.5251],[126.5532,33.5245],[126.5436,33.5275],[126.5333,33.5226],[126.5264,33.5184],[126.5188,33.519],[126.5059,33.5171],[126.4973,33.5198],[126.4861,33.5151],[126.4824,33.5121],[126.4722,33.5096],[126.4663,33.5096],[126.4626,33.5049],[126.4567,33.5044],[126.4534,33.5005],[126.4484,33.4975],[126.4415,33.4975],[126.4368,33.4959],[126.4292,33.4939],[126.4213,33.4925],[126.4164,33.4914],[126.4094,33.4862],[126.4038,33.484],[126.3972,33.4837],[126.3922,33.4876],[126.3843,33.4881],[126.3784,33.4843],[126.3708,33.4812],[126.3638,33.4779],[126.3559,33.4774],[126.3503,33.4733],[126.3433,33.4702],[126.3347,33.4669],[126.3245,33.4664],[126.3169,33.4664],[126.3103,33.4655],[126.3083,33.4586],[126.3063,33.452],[126.3014,33.4479],[126.2924,33.4451],[126.2815,33.444],[126.2723,33.438],[126.2663,33.4363],[126.2624,33.4322],[126.2624,33.4264],[126.2607,33.4209],[126.2607,33.4156],[126.2581,33.4118],[126.2505,33.4032],[126.2442,33.3947],[126.2383,33.3905],[126.233,33.3886],[126.2293,33.39],[126.2234,33.3886],[126.2204,33.3853],[126.2164,33.3792],[126.2065,33.3711],[126.1863,33.3575],[126.1813,33.3469],[126.1763,33.3375],[126.1725,33.3238]]],[[[126.9412,33.5066],[126.9416,33.5048],[126.9422,33.5028],[126.9439,33.5007],[126.9443,33.4984],[126.9444,33.4972],[126.9443,33.496],[126.9441,33.4948],[126.946,33.494],[126.9485,33.4935],[126.9505,33.4935],[126.9524,33.4928],[126.9566,33.4916],[126.9581,33.4922],[126.9596,33.4932],[126.9605,33.4932],[126.962,33.4912],[126.9661,33.4903],[126.9674,33.4931],[126.9671,33.4965],[126.9671,33.4976],[126.9692,33.4976],[126.9701,33.4978],[126.9707,33.4988],[126.9707,33.5014],[126.97,33.5028],[126.9684,33.5031],[126.9681,33.5043],[126.968,33.5063],[126.9677,33.5082],[126.9666,33.5097],[126.9655,33.511],[126.9647,33.5122],[126.9642,33.514],[126.9628,33.5139],[126.9613,33.5135],[126.9598,33.5135],[126.9579,33.5139],[126.9575,33.515],[126.9581,33.5163],[126.9589,33.5178],[126.9609,33.518],[126.9611,33.519],[126.9602,33.5202],[126.9585,33.521],[126.9574,33.5218],[126.9558,33.5236],[126.9542,33.5241],[126.9536,33.524],[126.952,33.5232],[126.9513,33.523],[126.949,33.5225],[126.9487,33.5215],[126.9489,33.5198],[126.9494,33.5189],[126.949,33.518],[126.9486,33.5151],[126.9475,33.5139],[126.9459,33.5132],[126.9447,33.5118],[126.9433,33.5107],[126.9433,33.5097],[126.9435,33.5078],[126.9427,33.5072],[126.9412,33.5066]]]]},"properties":{"id":"jeju"},"id":"jeju"},{"type":"Feature","geometry":{"type":"MultiPolygon","coordinates":[[[[126.7701,37.5489],[126.7828,37.5389],[126.7879,37.536],[126.7941,37.534],[126.8013,37.5327],[126.8029,37.5266],[126.807,37.5262],[126.807,37.5315],[126.8168,37.5315],[126.8287,37.5291],[126.8318,37.527],[126.8319,37.5268],[126.8334,37.5229],[126.8292,37.5196],[126.8261,37.5135],[126.8241,37.5037],[126.8241,37.4975],[126.8184,37.493],[126.8137,37.4906],[126.8137,37.4881],[126.8204,37.4877],[126.823,37.4865],[126.8241,37.4828],[126.8246,37.4742],[126.8282,37.4697],[126.8354,37.468],[126.8416,37.4648],[126.8488,37.4652],[126.8514,37.4664],[126.8602,37.4705],[126.8628,37.4738],[126.8648,37.4803],[126.8685,37.4832],[126.8767,37.482],[126.8768,37.4816],[126.8783,37.4779],[126.8798,37.4709],[126.8809,37.4643],[126.886,37.4586],[126.8886,37.4504],[126.9146,37.4217],[126.917,37.4283],[126.9222,37.432],[126.9278,37.4336],[126.9315,37.4316],[126.9392,37.4275],[126.9459,37.427],[126.9462,37.4271],[126.9464,37.427],[126.964,37.4279],[126.9646,37.427],[126.9764,37.4357],[126.9836,37.4385],[126.9888,37.4459],[126.9893,37.4464],[126.9919,37.4488],[126.9981,37.4443],[127.0053,37.4426],[127.0115,37.4422],[127.0166,37.4459],[127.0213,37.4496],[127.0244,37.4504],[127.027,37.4467],[127.029,37.4455],[127.0332,37.4426],[127.0373,37.4385],[127.0394,37.432],[127.044,37.4279],[127.0461,37.425],[127.0538,37.415],[127.0599,37.4182],[127.0788,37.4266],[127.093,37.4379],[127.1012,37.4482],[127.1017,37.4483],[127.1225,37.4529],[127.132,37.4585],[127.1341,37.461],[127.1402,37.4679],[127.1508,37.4704],[127.1545,37.4754],[127.1622,37.4836],[127.1643,37.4856],[127.1555,37.493],[127.1488,37.4983],[127.1504,37.5037],[127.155,37.507],[127.1552,37.5086],[127.156,37.5172],[127.1591,37.5246],[127.1664,37.5315],[127.1746,37.5348],[127.1834,37.5364],[127.1844,37.5401],[127.185,37.5549],[127.1818,37.5782],[127.1807,37.578],[127.156,37.5647],[127.1442,37.5618],[127.138,37.5614],[127.1333,37.5589],[127.1256,37.552],[127.1194,37.5475],[127.1116,37.5466],[127.1091,37.5463],[127.1044,37.5508],[127.1023,37.5553],[127.1039,37.5647],[127.1039,37.5716],[127.1091,37.5778],[127.1158,37.5802],[127.1184,37.5835],[127.1184,37.5962],[127.1173,37.6015],[127.1132,37.6064],[127.1142,37.6125],[127.1168,37.6142],[127.1225,37.6187],[127.1225,37.6228],[127.1189,37.6333],[127.1098,37.6351],[127.1053,37.6411],[127.1037,37.6501],[127.0992,37.6663],[127.0914,37.6879],[127.0776,37.6843],[127.0682,37.6815],[127.0552,37.6815],[127.0398,37.6852],[127.0178,37.6906],[127.0173,37.6899],[127.0138,37.6852],[127.0102,37.6812],[126.998,37.6672],[126.9996,37.6646],[126.9902,37.659],[126.9902,37.6459],[126.9913,37.6291],[126.9819,37.6244],[126.9815,37.6243],[126.966,37.6199],[126.9624,37.6175],[126.9583,37.6125],[126.9567,37.6072],[126.9552,37.6011],[126.9544,37.6005],[126.949,37.5962],[126.9449,37.5929],[126.9371,37.5868],[126.9325,37.5815],[126.9284,37.577],[126.9247,37.5749],[126.9206,37.5749],[126.915,37.5761],[126.9129,37.5765],[126.9025,37.5696],[126.8888,37.5806],[126.8838,37.5757],[126.872,37.5682],[126.859,37.5654],[126.8424,37.5729],[126.8271,37.5813],[126.8029,37.5925],[126.8046,37.5841],[126.7964,37.5785],[126.7855,37.5746],[126.7848,37.5622],[126.7822,37.5557],[126.7724,37.5508],[126.7701,37.5489]]]]},"properties":{"id":"seoul"},"id":"seoul"},{"type":"Feature","geometry":{"type":"MultiPolygon","coordinates":[[[[127.2525,36.2778],[127.2608,36.2749],[127.269,36.272],[127.2738,36.2673],[127.2915,36.2492],[127.2856,36.2444],[127.2856,36.232],[127.2891,36.2234],[127.3057,36.2158],[127.3199,36.213],[127.3352,36.2053],[127.3364,36.1939],[127.3411,36.1786],[127.353,36.1863],[127.3565,36.1958],[127.366,36.2091],[127.3683,36.2206],[127.366,36.2311],[127.3624,36.2444],[127.366,36.2616],[127.3801,36.2654],[127.3943,36.2606],[127.399,36.2559],[127.399,36.2435],[127.4038,36.2149],[127.425,36.2063],[127.4286,36.2177],[127.4392,36.2225],[127.4392,36.2358],[127.4309,36.2444],[127.438,36.2501],[127.4357,36.2654],[127.4321,36.2806],[127.4499,36.2806],[127.4593,36.2892],[127.4522,36.2997],[127.4357,36.3149],[127.425,36.3263],[127.4227,36.3359],[127.4253,36.3385],[127.4357,36.3492],[127.4475,36.3473],[127.4569,36.3482],[127.4629,36.3606],[127.4463,36.3749],[127.4487,36.3863],[127.4605,36.3958],[127.4676,36.4006],[127.4915,36.4195],[127.49,36.4215],[127.4983,36.4281],[127.5066,36.4396],[127.5066,36.4453],[127.4924,36.4462],[127.49,36.4538],[127.4912,36.4662],[127.477,36.47],[127.4723,36.4576],[127.4652,36.45],[127.4558,36.4472],[127.4357,36.4491],[127.4179,36.4462],[127.4002,36.45],[127.4061,36.4633],[127.4049,36.4747],[127.4026,36.489],[127.3789,36.4871],[127.3671,36.4861],[127.3624,36.4728],[127.3648,36.4605],[127.3648,36.4538],[127.3518,36.4405],[127.3447,36.4281],[127.3388,36.4196],[127.3246,36.4167],[127.3163,36.4167],[127.3116,36.4215],[127.3045,36.4215],[127.2939,36.4167],[127.2856,36.4063],[127.2856,36.3853],[127.2832,36.3777],[127.2714,36.3701],[127.2679,36.3587],[127.2773,36.3511],[127.2856,36.3435],[127.2797,36.3349],[127.2702,36.3292],[127.2654,36.3231],[127.262,36.3187],[127.2631,36.3063],[127.2596,36.2978],[127.2537,36.2882],[127.2525,36.2778]]]]},"properties":{"id":"daejeon"},"id":"daejeon"},{"type":"Feature","geometry":{"type":"MultiPolygon","coordinates":[[[[126.8449,35.2213],[126.8484,35.2209],[126.8507,35.2122],[126.8566,35.2064],[126.8578,35.1977],[126.8566,35.1881],[126.8543,35.1794],[126.8755,35.1688],[126.8826,35.1697],[126.8968,35.1562],[126.9042,35.1545],[126.9098,35.1533],[126.9122,35.1545],[126.9193,35.1581],[126.9299,35.1591],[126.9358,35.1591],[126.9441,35.1581],[126.9488,35.1543],[126.9583,35.1465],[126.9653,35.1378],[126.9724,35.134],[126.9866,35.1224],[126.9895,35.1205],[127.0057,35.1102],[127.0126,35.1224],[127.0168,35.1374],[127.0183,35.1485],[127.0206,35.1597],[127.0274,35.1683],[127.019,35.1788],[127.0024,35.1813],[126.9858,35.1801],[126.9737,35.1813],[126.9706,35.1949],[126.9578,35.2128],[126.9457,35.2289],[126.9411,35.2338],[126.9358,35.24],[126.9237,35.2505],[126.9109,35.2542],[126.8988,35.2493],[126.8882,35.245],[126.8791,35.2499],[126.8602,35.2383],[126.8449,35.2213]]]]},"properties":{"id":"gwangju"},"id":"gwangju"},{"type":"Feature","geometry":{"type":"MultiPolygon","coordinates":[[[[128.4615,35.8328],[128.4756,35.8172],[128.4814,35.8111],[128.491,35.8134],[128.4992,35.8096],[128.5193,35.7933],[128.543,35.7751],[128.55,35.7683],[128.5642,35.7664],[128.5749,35.7722],[128.5784,35.7818],[128.5831,35.7904],[128.5914,35.798],[128.5926,35.799],[128.602,35.8029],[128.6162,35.8029],[128.6339,35.799],[128.6469,35.7942],[128.6858,35.7855],[128.6859,35.7866],[128.6978,35.7923],[128.7084,35.7961],[128.7167,35.8019],[128.7155,35.8115],[128.7084,35.8153],[128.7119,35.8259],[128.7226,35.8297],[128.7344,35.8479],[128.7359,35.8486],[128.7486,35.8546],[128.7651,35.8738],[128.7651,35.8833],[128.7616,35.9006],[128.7568,35.9082],[128.7462,35.9178],[128.7439,35.9264],[128.7427,35.9484],[128.745,35.9628],[128.7361,35.9841],[128.7328,35.9846],[128.726,35.9889],[128.7192,35.9981],[128.7056,36.0048],[128.6965,36.0091],[128.6729,36.0077],[128.6529,36.0087],[128.6434,36.0115],[128.6393,36.0133],[128.6221,35.9953],[128.6115,35.9943],[128.6074,35.9925],[128.6009,35.9895],[128.5973,35.9828],[128.5902,35.9733],[128.5796,35.9723],[128.5678,35.9723],[128.5595,35.9656],[128.5512,35.9608],[128.5418,35.9618],[128.5406,35.9675],[128.53,35.9761],[128.5193,35.9608],[128.5217,35.9503],[128.5276,35.9417],[128.53,35.9293],[128.5264,35.9216],[128.5122,35.914],[128.5063,35.9053],[128.5013,35.8979],[128.5222,35.8749],[128.5222,35.8746],[128.5236,35.8603],[128.5159,35.8596],[128.5033,35.8603],[128.4975,35.8627],[128.4878,35.8643],[128.4762,35.8599],[128.4689,35.8525],[128.4675,35.845],[128.4665,35.8368],[128.4626,35.8329],[128.4615,35.8328]]]]},"properties":{"id":"daegu"},"id":"daegu"},{"type":"Feature","geometry":{"type":"MultiPolygon","coordinates":[[[[128.9849,36.1624],[128.9864,36.161],[128.992,36.1557],[129.0133,36.1538],[129.0263,36.1529],[129.044,36.1471],[129.0511,36.1414],[129.0582,36.1261],[129.0606,36.1214],[129.0712,36.1128],[129.0771,36.1185],[129.0948,36.1128],[129.1019,36.1023],[129.1019,36.087],[129.109,36.0784],[129.1173,36.0746],[129.1397,36.0631],[129.1492,36.0536],[129.1634,36.0488],[129.174,36.0335],[129.1965,36.0354],[129.2236,36.0392],[129.2402,36.0478],[129.2414,36.0603],[129.2437,36.066],[129.2709,36.0689],[129.2804,36.0603],[129.2839,36.044],[129.2827,36.0325],[129.2792,36.023],[129.3016,35.9838],[129.3087,35.9599],[129.3134,35.9465],[129.3241,35.9331],[129.3264,35.9235],[129.3264,35.9101],[129.3324,35.8929],[129.3418,35.8881],[129.3513,35.8814],[129.3584,35.868],[129.3631,35.8594],[129.3773,35.8575],[129.3926,35.8527],[129.4044,35.8527],[129.4115,35.8613],[129.4163,35.8728],[129.4269,35.8747],[129.4387,35.8661],[129.4411,35.8584],[129.4434,35.8517],[129.4505,35.8479],[129.4789,35.8412],[129.5094,35.8329],[129.5108,35.8326],[129.5273,35.8575],[129.525,35.8738],[129.525,35.9015],[129.5238,35.912],[129.5202,35.9235],[129.5273,35.9331],[129.5415,35.9436],[129.5486,35.9561],[129.5498,35.9685],[129.5498,35.9819],[129.5557,35.9905],[129.5734,36.0077],[129.5793,36.0201],[129.5782,36.0345],[129.5782,36.0459],[129.5734,36.0593],[129.5687,36.0679],[129.564,36.0794],[129.5592,36.0841],[129.5498,36.0851],[129.5344,36.0784],[129.5309,36.0736],[129.5238,36.0574],[129.5191,36.044],[129.5061,36.0297],[129.4966,36.0182],[129.4872,36.0115],[129.4765,36.0058],[129.4659,35.9981],[129.4482,35.9924],[129.4387,35.9991],[129.4257,36.0087],[129.4186,36.0096],[129.4009,36.0125],[129.395,36.0211],[129.4056,36.0249],[129.4288,36.0269],[129.421,36.0339],[129.4007,36.0386],[129.3954,36.0343],[129.3915,36.0308],[129.3813,36.0332],[129.3794,36.0386],[129.3779,36.0441],[129.3784,36.0492],[129.3799,36.0609],[129.3828,36.0625],[129.3852,36.0633],[129.3968,36.066],[129.4041,36.0715],[129.4084,36.0727],[129.4152,36.0746],[129.42,36.0778],[129.4191,36.0848],[129.4196,36.0879],[129.4259,36.095],[129.4278,36.095],[129.4365,36.0942],[129.4375,36.1004],[129.4384,36.1063],[129.4326,36.1126],[129.4225,36.1145],[129.4104,36.1247],[129.4002,36.1325],[129.3963,36.1376],[129.3954,36.1431],[129.4007,36.1481],[129.3938,36.1634],[129.3867,36.1767],[129.382,36.1834],[129.3749,36.1901],[129.3714,36.1996],[129.3773,36.2082],[129.3843,36.2139],[129.3855,36.2292],[129.3832,36.2387],[129.3737,36.2511],[129.3665,36.2638],[129.3619,36.2625],[129.3229,36.2625],[129.3099,36.2635],[129.3028,36.2654],[129.2957,36.272],[129.291,36.2778],[129.291,36.293],[129.2945,36.2997],[129.2981,36.3101],[129.2898,36.3216],[129.2744,36.3244],[129.2638,36.3244],[129.2616,36.3249],[129.2331,36.3044],[129.2189,36.2882],[129.2189,36.2759],[129.2071,36.2587],[129.2012,36.2482],[129.1965,36.2368],[129.1846,36.2282],[129.1728,36.2234],[129.1539,36.2349],[129.1409,36.2511],[129.1267,36.2616],[129.1126,36.2635],[129.0984,36.2663],[129.083,36.2692],[129.0653,36.2682],[129.0558,36.2625],[129.0617,36.2501],[129.0688,36.2444],[129.0724,36.2387],[129.0688,36.2311],[129.0641,36.2168],[129.0546,36.213],[129.0452,36.2072],[129.0381,36.1958],[129.0097,36.1758],[128.992,36.17],[128.9849,36.1624]]]]},"properties":{"id":"pohang"},"id":"pohang"},{"type":"Feature","geometry":{"type":"MultiPolygon","coordinates":[[[[128.9755,35.7367],[128.9849,35.7252],[128.9908,35.7127],[128.9991,35.7012],[129.0074,35.6926],[129.0156,35.682],[129.0216,35.6753],[129.0416,35.6618],[129.0428,35.6513],[129.0499,35.6388],[129.07,35.6446],[129.0712,35.659],[129.07,35.6724],[129.0795,35.6926],[129.0913,35.6993],[129.1019,35.7031],[129.1256,35.7079],[129.1421,35.7127],[129.1634,35.7098],[129.1811,35.7098],[129.1917,35.7118],[129.2059,35.7108],[129.2248,35.705],[129.2461,35.6993],[129.2709,35.6887],[129.2744,35.6791],[129.2638,35.6734],[129.2603,35.6657],[129.2709,35.6484],[129.278,35.6465],[129.2969,35.6465],[129.3064,35.6551],[129.3217,35.6638],[129.3477,35.6724],[129.3654,35.6695],[129.3855,35.6657],[129.4009,35.659],[129.4434,35.6465],[129.4458,35.6561],[129.4659,35.6791],[129.4706,35.6926],[129.4718,35.7041],[129.4789,35.7156],[129.486,35.7252],[129.486,35.7444],[129.4919,35.7597],[129.4919,35.7693],[129.4907,35.777],[129.4907,35.7875],[129.4966,35.7952],[129.5061,35.8029],[129.5084,35.8096],[129.5094,35.8329],[129.4789,35.8412],[129.4505,35.8479],[129.4434,35.8517],[129.4411,35.8584],[129.4387,35.8661],[129.4269,35.8747],[129.4163,35.8728],[129.4115,35.8613],[129.4044,35.8527],[129.3926,35.8527],[129.3773,35.8575],[129.3631,35.8594],[129.3584,35.868],[129.3513,35.8814],[129.3418,35.8881],[129.3324,35.8929],[129.3264,35.9101],[129.3264,35.9235],[129.3241,35.9331],[129.3134,35.9465],[129.3087,35.9599],[129.3016,35.9838],[129.2792,36.023],[129.2827,36.0325],[129.2839,36.044],[129.2804,36.0603],[129.2709,36.0689],[129.2437,36.066],[129.2414,36.0603],[129.2402,36.0478],[129.2236,36.0392],[129.1965,36.0354],[129.174,36.0335],[129.1634,36.0488],[129.1492,36.0536],[129.1385,36.0402],[129.1362,36.0316],[129.1374,36.0192],[129.1385,36.0087],[129.1338,36.0058],[129.1149,36.0029],[129.1126,35.9905],[129.1126,35.9742],[129.1232,35.9494],[129.1291,35.9436],[129.1315,35.9274],[129.1256,35.9168],[129.1078,35.9216],[129.0972,35.9341],[129.0747,35.9388],[129.0487,35.9207],[129.0405,35.9053],[129.031,35.8939],[129.0251,35.8785],[129.031,35.8623],[129.0275,35.8546],[129.0141,35.8391],[129.0109,35.8354],[129.0038,35.8038],[128.9944,35.7751],[128.9849,35.7636],[128.9755,35.7492],[128.9755,35.7367]]]]},"properties":{"id":"gyeongju"},"id":"gyeongju"},{"type":"Feature","geometry":{"type":"MultiPolygon","coordinates":[[[[127.5137,37.7161],[127.5361,37.7114],[127.5552,37.7132],[127.5562,37.7133],[127.5692,37.7189],[127.5858,37.7076],[127.5952,37.6917],[127.607,37.6702],[127.62,37.6693],[127.6295,37.6833],[127.6389,37.6889],[127.6507,37.6758],[127.6543,37.6852],[127.6661,37.6861],[127.6779,37.6955],[127.6897,37.7133],[127.7134,37.7263],[127.7347,37.7319],[127.7618,37.7329],[127.7855,37.7319],[127.8138,37.7338],[127.8351,37.7376],[127.8516,37.746],[127.8587,37.7609],[127.8528,37.7749],[127.8327,37.7917],[127.828,37.8011],[127.8245,37.8169],[127.8209,37.8291],[127.8233,37.8375],[127.8398,37.8365],[127.8516,37.8291],[127.8599,37.83],[127.88,37.8337],[127.8871,37.844],[127.8871,37.8524],[127.9036,37.8487],[127.9166,37.8384],[127.9225,37.8291],[127.9332,37.8207],[127.9438,37.8281],[127.9485,37.8393],[127.9509,37.8487],[127.9604,37.8683],[127.971,37.8767],[127.9757,37.8907],[127.9805,37.9],[127.9887,37.914],[128.0019,37.9327],[127.989,37.9414],[127.9835,37.9763],[128.0204,37.9909],[128.0259,37.9967],[128.0333,38.0025],[128.0426,38.0098],[128.0221,38.0139],[128.0159,38.0139],[128.0071,38.0112],[128.0038,38.0063],[128.0009,38.0013],[127.9941,37.9979],[127.9873,37.9998],[127.9852,38.0043],[127.9864,38.009],[127.9816,38.0146],[127.9686,38.0258],[127.9521,38.0267],[127.9438,38.0146],[127.9285,38.0071],[127.9131,38.0127],[127.9048,38.0276],[127.9038,38.0396],[127.8552,38.0416],[127.8505,38.0286],[127.8481,38.0146],[127.8446,38.0043],[127.8268,37.9988],[127.7926,37.9932],[127.7855,37.9969],[127.7666,38.0109],[127.7524,38.0165],[127.7358,38.0276],[127.7311,38.0211],[127.7134,38.0192],[127.7075,38.0267],[127.6909,38.0276],[127.6626,38.0267],[127.6531,38.0369],[127.6413,38.0481],[127.6188,38.0528],[127.6141,38.0611],[127.6129,38.0732],[127.5905,38.0769],[127.568,38.0751],[127.5692,38.0611],[127.581,38.0528],[127.5834,38.0407],[127.5751,38.0239],[127.5598,38.0165],[127.5408,37.9997],[127.5394,37.9991],[127.5444,37.9615],[127.5598,37.9559],[127.5858,37.9522],[127.607,37.9419],[127.62,37.928],[127.6188,37.9018],[127.6153,37.8944],[127.6094,37.872],[127.5858,37.8608],[127.5692,37.8543],[127.555,37.8449],[127.5326,37.8309],[127.5338,37.8179],[127.5338,37.8039],[127.5219,37.7861],[127.5243,37.7749],[127.5444,37.7609],[127.5397,37.7469],[127.5208,37.7329],[127.5137,37.7161]]]]},"properties":{"id":"chuncheon"},"id":"chuncheon"},{"type":"Feature","geometry":{"type":"MultiPolygon","coordinates":[[[[127.7488,37.2265],[127.7536,37.2161],[127.7583,37.2105],[127.7531,37.2084],[127.7595,37.1738],[127.763,37.1653],[127.7689,37.1568],[127.776,37.1465],[127.7866,37.138],[127.802,37.1361],[127.8174,37.138],[127.8292,37.1417],[127.841,37.1455],[127.8493,37.1465],[127.8623,37.154],[127.8729,37.1596],[127.893,37.153],[127.8965,37.1474],[127.9107,37.1455],[127.9131,37.154],[127.9166,37.1625],[127.9296,37.1662],[127.9367,37.1681],[127.9391,37.1747],[127.9344,37.1907],[127.9367,37.1926],[127.9426,37.1982],[127.9403,37.203],[127.9308,37.2077],[127.9249,37.2152],[127.9273,37.2218],[127.9391,37.2293],[127.9556,37.234],[127.9651,37.2406],[127.9722,37.2481],[127.984,37.2491],[127.9982,37.2462],[128.01,37.2378],[128.0171,37.2284],[128.0183,37.2199],[128.0289,37.2105],[128.0336,37.1992],[128.0336,37.1841],[128.0774,37.1841],[128.0892,37.1869],[128.0986,37.1917],[128.1116,37.1992],[128.1223,37.2105],[128.1293,37.2208],[128.1412,37.2237],[128.1542,37.2152],[128.1601,37.2077],[128.1731,37.2077],[128.1813,37.2161],[128.1825,37.2265],[128.1884,37.2349],[128.1991,37.2387],[128.2085,37.2434],[128.2109,37.2528],[128.2133,37.2641],[128.2168,37.2707],[128.2109,37.2792],[128.2003,37.2876],[128.1908,37.2886],[128.1825,37.2848],[128.1766,37.2745],[128.1613,37.2669],[128.1329,37.2632],[128.1152,37.2773],[128.1128,37.2942],[128.1034,37.2942],[128.0892,37.2961],[128.0785,37.2989],[128.0655,37.3017],[128.0525,37.3074],[128.049,37.3215],[128.049,37.3393],[128.0466,37.3506],[128.0549,37.359],[128.0726,37.3609],[128.0797,37.3675],[128.0785,37.3797],[128.0785,37.3928],[128.0809,37.3975],[128.0927,37.4088],[128.0868,37.4154],[128.0774,37.4238],[128.062,37.4313],[128.0549,37.437],[128.0466,37.4398],[128.0277,37.4416],[128.0159,37.4407],[128.0053,37.4407],[127.9958,37.4454],[127.9875,37.451],[127.9745,37.4501],[127.9533,37.4473],[127.9462,37.4557],[127.9426,37.4689],[127.9438,37.4867],[127.9296,37.4942],[127.9214,37.4904],[127.9143,37.4829],[127.9084,37.466],[127.9013,37.4567],[127.8895,37.4538],[127.8776,37.452],[127.8729,37.4473],[127.8694,37.4341],[127.8694,37.4219],[127.8717,37.4079],[127.8706,37.3975],[127.8635,37.391],[127.8552,37.3835],[127.8516,37.3919],[127.8481,37.4004],[127.8434,37.4107],[127.8398,37.421],[127.8327,37.4285],[127.8256,37.4323],[127.8186,37.4341],[127.8091,37.4379],[127.7985,37.4163],[127.7996,37.406],[127.7878,37.3957],[127.7855,37.391],[127.7807,37.3797],[127.7784,37.3712],[127.7784,37.3656],[127.7644,37.3644],[127.7642,37.3233],[127.7559,37.2792],[127.7559,37.2585],[127.7571,37.2472],[127.75,37.2349],[127.7488,37.2265]]]]},"properties":{"id":"wonju"},"id":"wonju"},{"type":"Feature","geometry":{"type":"MultiPolygon","coordinates":[[[[128.1128,37.2942],[128.1152,37.2773],[128.1329,37.2632],[128.1613,37.2669],[128.1766,37.2745],[128.1825,37.2848],[128.1908,37.2886],[128.2003,37.2876],[128.2109,37.2792],[128.2168,37.2707],[128.2133,37.2641],[128.2109,37.2528],[128.2085,37.2434],[128.2251,37.2284],[128.2298,37.2208],[128.2487,37.218],[128.2558,37.2152],[128.2593,37.2048],[128.2747,37.2011],[128.2842,37.2039],[128.296,37.2105],[128.3125,37.2114],[128.3279,37.2095],[128.3302,37.2011],[128.3279,37.1917],[128.3172,37.1869],[128.3113,37.1804],[128.3066,37.1719],[128.3019,37.1672],[128.2889,37.1643],[128.2723,37.1615],[128.2688,37.1465],[128.2806,37.137],[128.2865,37.1323],[128.296,37.1286],[128.3057,37.1294],[128.3066,37.1295],[128.3137,37.1361],[128.3232,37.1417],[128.348,37.1427],[128.3716,37.1436],[128.3881,37.1436],[128.4023,37.1323],[128.4023,37.1229],[128.4177,37.1135],[128.4201,37.1022],[128.4212,37.0918],[128.4354,37.0927],[128.439,37.1012],[128.4555,37.1012],[128.4839,37.1031],[128.4898,37.1088],[128.5063,37.1078],[128.5146,37.0956],[128.5418,37.0861],[128.5465,37.0805],[128.5678,37.0805],[128.5796,37.0739],[128.5914,37.0711],[128.6056,37.0729],[128.6174,37.0739],[128.6292,37.0739],[128.6387,37.0692],[128.6493,37.0597],[128.6883,37.0494],[128.6966,37.0418],[128.7015,37.0365],[128.7037,37.0343],[128.7238,37.0343],[128.732,37.0314],[128.7368,37.0239],[128.7462,37.0201],[128.7557,37.0211],[128.7592,37.0267],[128.7557,37.0362],[128.7521,37.0447],[128.7545,37.0475],[128.7628,37.0541],[128.7651,37.0635],[128.7675,37.0711],[128.7781,37.0767],[128.7864,37.0767],[128.8065,37.0777],[128.8124,37.0711],[128.8195,37.0645],[128.8301,37.0616],[128.8384,37.0513],[128.8443,37.0437],[128.8538,37.0399],[128.862,37.039],[128.8859,37.0385],[128.8788,37.041],[128.8758,37.0513],[128.8788,37.064],[128.8818,37.0754],[128.8811,37.0881],[128.8811,37.0953],[128.8743,37.105],[128.8788,37.1116],[128.8864,37.1183],[128.8879,37.1285],[128.8901,37.1364],[128.897,37.1412],[128.9075,37.1484],[128.9106,37.1524],[128.8443,37.1549],[128.8278,37.1681],[128.8124,37.1747],[128.7958,37.1822],[128.7722,37.1917],[128.7557,37.2011],[128.7462,37.2011],[128.7356,37.1954],[128.7214,37.1869],[128.7037,37.1794],[128.6859,37.1747],[128.6599,37.1747],[128.6328,37.1832],[128.6269,37.2058],[128.6233,37.2086],[128.6162,37.2105],[128.589,37.2124],[128.5808,37.2171],[128.5796,37.2237],[128.5796,37.234],[128.5725,37.2434],[128.5678,37.2622],[128.55,37.282],[128.53,37.282],[128.511,37.2848],[128.4969,37.2933],[128.4732,37.3008],[128.4579,37.313],[128.4378,37.3384],[128.4177,37.3346],[128.4106,37.3243],[128.4082,37.3083],[128.4059,37.297],[128.3905,37.2848],[128.3716,37.2848],[128.3574,37.2942],[128.3468,37.2961],[128.3279,37.3017],[128.322,37.3543],[128.3196,37.3684],[128.3042,37.3788],[128.2853,37.3863],[128.2735,37.391],[128.272,37.3952],[128.2522,37.3835],[128.2452,37.3797],[128.2322,37.3778],[128.192,37.3778],[128.179,37.375],[128.179,37.3628],[128.1813,37.3515],[128.1813,37.3327],[128.1766,37.3252],[128.1695,37.3196],[128.1695,37.3121],[128.127,37.3121],[128.1152,37.3074],[128.1128,37.2942]]]]},"properties":{"id":"yeongwol"},"id":"yeongwol"},{"type":"Feature","geometry":{"type":"MultiPolygon","coordinates":[[[[127.0185,36.6522],[127.0303,36.6456],[127.0469,36.6475],[127.0552,36.6437],[127.0552,36.6408],[127.067,36.6342],[127.0894,36.6314],[127.093,36.6389],[127.0965,36.6494],[127.1131,36.6541],[127.1237,36.6513],[127.1367,36.637],[127.1595,36.6293],[127.1591,36.6332],[127.1591,36.6484],[127.1603,36.6607],[127.1674,36.6674],[127.1662,36.6797],[127.1461,36.6835],[127.1355,36.6901],[127.1391,36.7005],[127.1497,36.71],[127.1698,36.7242],[127.1875,36.7223],[127.2111,36.7167],[127.2348,36.7024],[127.2407,36.6949],[127.2525,36.6863],[127.2667,36.6835],[127.2785,36.6825],[127.3033,36.6844],[127.3033,36.6863],[127.3045,36.7015],[127.314,36.7204],[127.3281,36.7214],[127.3376,36.729],[127.3388,36.7441],[127.347,36.7498],[127.3553,36.7526],[127.3801,36.7536],[127.3919,36.7441],[127.4026,36.7413],[127.4132,36.7403],[127.4274,36.7441],[127.4191,36.7649],[127.4002,36.7754],[127.3979,36.7858],[127.3849,36.8066],[127.3589,36.8179],[127.34,36.8255],[127.3423,36.8388],[127.3305,36.8501],[127.3175,36.852],[127.3092,36.8633],[127.301,36.8813],[127.293,36.8854],[127.2844,36.8898],[127.275,36.9002],[127.256,36.9068],[127.2383,36.9163],[127.2206,36.9257],[127.2005,36.9437],[127.1934,36.9503],[127.1662,36.9626],[127.1461,36.9663],[127.1432,36.9658],[127.1308,36.9635],[127.119,36.9522],[127.1048,36.9446],[127.0918,36.9399],[127.0835,36.9342],[127.0812,36.9286],[127.0826,36.9263],[127.0859,36.921],[127.0918,36.9163],[127.0906,36.9012],[127.0906,36.8851],[127.093,36.87],[127.0989,36.8586],[127.1154,36.851],[127.1131,36.8406],[127.1036,36.8331],[127.1024,36.8142],[127.1048,36.7981],[127.1107,36.7886],[127.1249,36.7839],[127.1272,36.7687],[127.1225,36.7583],[127.1095,36.7545],[127.1001,36.7479],[127.0977,36.746],[127.0847,36.7195],[127.0823,36.7072],[127.0705,36.7015],[127.0587,36.6977],[127.0469,36.6901],[127.0351,36.6806],[127.0221,36.6721],[127.0185,36.6626],[127.0185,36.6522]]]]},"properties":{"id":"cheonan"},"id":"cheonan"},{"type":"Feature","geometry":{"type":"MultiPolygon","coordinates":[[[[127.0209,37.3421],[127.0374,37.3355],[127.0422,37.3271],[127.0469,37.3177],[127.0575,37.3074],[127.0622,37.2933],[127.0693,37.2867],[127.0871,37.2867],[127.0953,37.2801],[127.0953,37.2669],[127.0906,37.2509],[127.0741,37.2312],[127.0716,37.2246],[127.0705,37.2218],[127.0823,37.2105],[127.1001,37.2095],[127.119,37.2133],[127.1308,37.2095],[127.1473,37.2086],[127.1532,37.2001],[127.1556,37.1851],[127.1603,37.1766],[127.1497,37.1662],[127.1355,37.1578],[127.1308,37.1521],[127.1296,37.1389],[127.1261,37.1314],[127.1249,37.1201],[127.119,37.1107],[127.1142,37.1003],[127.1225,37.089],[127.1414,37.0795],[127.1544,37.0786],[127.1674,37.0767],[127.1958,37.0777],[127.2088,37.0927],[127.2194,37.1059],[127.2371,37.1125],[127.2572,37.1238],[127.256,37.137],[127.2596,37.1465],[127.2738,37.1427],[127.2773,37.1276],[127.2915,37.1191],[127.3033,37.1125],[127.3021,37.1003],[127.3222,37.0993],[127.3222,37.1125],[127.3388,37.1069],[127.3435,37.0909],[127.36,37.089],[127.3624,37.1031],[127.3789,37.1003],[127.3872,37.0918],[127.4061,37.0843],[127.4191,37.0833],[127.4262,37.0956],[127.4179,37.1069],[127.4144,37.1144],[127.4298,37.1191],[127.4286,37.1229],[127.4337,37.1406],[127.4274,37.1436],[127.4262,37.154],[127.4239,37.1709],[127.386,37.1775],[127.3789,37.1879],[127.3648,37.1945],[127.3459,37.2067],[127.3411,37.2152],[127.3352,37.2293],[127.34,37.266],[127.2915,37.266],[127.2832,37.2792],[127.2868,37.2923],[127.2891,37.3092],[127.2856,37.3346],[127.2655,37.3346],[127.2608,37.344],[127.2454,37.3515],[127.2324,37.3468],[127.2277,37.3384],[127.223,37.328],[127.2111,37.3243],[127.1958,37.3309],[127.1875,37.3384],[127.1804,37.3393],[127.1627,37.3327],[127.1426,37.3309],[127.1412,37.3315],[127.1178,37.328],[127.1024,37.329],[127.0894,37.3337],[127.08,37.3412],[127.067,37.3515],[127.0528,37.3572],[127.0374,37.3619],[127.0344,37.3608],[127.0292,37.359],[127.0209,37.3534],[127.0209,37.3421]]]]},"properties":{"id":"yongin"},"id":"yongin"},{"type":"Feature","geometry":{"type":"MultiPolygon","coordinates":[[[[126.6746,37.6787],[126.6782,37.6646],[126.7255,37.6375],[126.7633,37.6178],[126.7727,37.6132],[126.8023,37.5954],[126.8029,37.5925],[126.8271,37.5813],[126.8424,37.5729],[126.859,37.5654],[126.872,37.5682],[126.8838,37.5757],[126.8888,37.5806],[126.8933,37.5851],[126.9051,37.5879],[126.9098,37.5991],[126.9086,37.6122],[126.9098,37.6356],[126.9204,37.6384],[126.9429,37.6384],[126.9535,37.6468],[126.9606,37.6478],[126.9689,37.6356],[126.9819,37.6244],[126.9913,37.6291],[126.9902,37.6459],[126.9902,37.659],[126.9996,37.6646],[126.998,37.6672],[126.9949,37.6721],[126.9807,37.674],[126.9713,37.6796],[126.9571,37.6787],[126.9453,37.6712],[126.9417,37.6618],[126.9323,37.659],[126.9193,37.659],[126.9122,37.6656],[126.9145,37.674],[126.9193,37.6824],[126.924,37.6955],[126.937,37.7376],[126.924,37.7366],[126.9074,37.7366],[126.8956,37.7273],[126.8897,37.7133],[126.8743,37.7151],[126.8614,37.7282],[126.846,37.7291],[126.8377,37.717],[126.8212,37.7161],[126.807,37.7254],[126.7952,37.7235],[126.7822,37.7114],[126.7751,37.6964],[126.7538,37.6964],[126.7314,37.6974],[126.7065,37.688],[126.6805,37.6914],[126.6758,37.688],[126.6746,37.6787]]]]},"properties":{"id":"goyang"},"id":"goyang"},{"type":"Feature","geometry":{"type":"MultiPolygon","coordinates":[[[[127.0032,37.7572],[127.0043,37.7413],[127.0043,37.7329],[127.0091,37.7226],[127.0197,37.717],[127.0209,37.7086],[127.0221,37.6974],[127.0178,37.6906],[127.0398,37.6852],[127.0552,37.6815],[127.0682,37.6815],[127.0776,37.6843],[127.0914,37.6879],[127.0918,37.688],[127.093,37.6992],[127.1048,37.7011],[127.1154,37.7086],[127.119,37.717],[127.1213,37.7291],[127.1296,37.7385],[127.1442,37.7484],[127.1331,37.7534],[127.1287,37.7638],[127.1196,37.768],[127.1166,37.7728],[127.0741,37.7553],[127.0646,37.7497],[127.0445,37.7525],[127.028,37.76],[127.0162,37.7609],[127.0032,37.7572]]]]},"properties":{"id":"uijeongbu"},"id":"uijeongbu"},{"type":"Feature","geometry":{"type":"MultiPolygon","coordinates":[[[[127.0914,37.6879],[127.0992,37.6663],[127.1037,37.6501],[127.1053,37.6411],[127.1098,37.6351],[127.1189,37.6333],[127.1287,37.6345],[127.1431,37.6351],[127.1499,37.6315],[127.1506,37.6226],[127.1446,37.6142],[127.1453,37.6052],[127.1522,37.5968],[127.162,37.5908],[127.1658,37.5818],[127.1756,37.577],[127.1807,37.578],[127.1818,37.5782],[127.1847,37.5788],[127.196,37.58],[127.2036,37.5788],[127.2096,37.571],[127.2142,37.5662],[127.2232,37.5596],[127.2301,37.5536],[127.2346,37.5452],[127.2384,37.5392],[127.2467,37.5332],[127.2558,37.5284],[127.2641,37.5242],[127.2656,37.5236],[127.2732,37.5194],[127.2837,37.5134],[127.2859,37.4988],[127.2989,37.4996],[127.3072,37.5008],[127.3117,37.5068],[127.3132,37.5122],[127.317,37.5146],[127.3237,37.5262],[127.321,37.527],[127.321,37.5392],[127.3305,37.5523],[127.34,37.5588],[127.3423,37.5738],[127.3518,37.5841],[127.353,37.6019],[127.353,37.6085],[127.3577,37.616],[127.366,37.6206],[127.3848,37.6568],[127.3683,37.6805],[127.3577,37.6899],[127.3553,37.7002],[127.347,37.7291],[127.3305,37.7506],[127.2998,37.7656],[127.2722,37.78],[127.2667,37.7721],[127.2549,37.7637],[127.2478,37.7581],[127.236,37.7478],[127.2182,37.7478],[127.1993,37.7618],[127.1934,37.76],[127.1899,37.7516],[127.1757,37.7441],[127.1591,37.7432],[127.1473,37.7469],[127.1442,37.7484],[127.1296,37.7385],[127.1213,37.7291],[127.119,37.717],[127.1154,37.7086],[127.1048,37.7011],[127.093,37.6992],[127.0918,37.688],[127.0914,37.6879]]]]},"properties":{"id":"namyangju"},"id":"namyangju"},{"type":"Feature","geometry":{"type":"MultiPolygon","coordinates":[[[[127.0303,37.3712],[127.0344,37.3608],[127.0374,37.3619],[127.0528,37.3572],[127.067,37.3515],[127.08,37.3412],[127.0894,37.3337],[127.1024,37.329],[127.1178,37.328],[127.1412,37.3315],[127.1343,37.3346],[127.1355,37.3449],[127.158,37.3515],[127.1698,37.36],[127.1769,37.3712],[127.1792,37.3835],[127.1792,37.3966],[127.1911,37.405],[127.1958,37.4154],[127.197,37.4266],[127.197,37.4388],[127.1816,37.451],[127.1781,37.4595],[127.1791,37.4659],[127.1521,37.4707],[127.1508,37.4704],[127.1402,37.4679],[127.1341,37.461],[127.132,37.4585],[127.1225,37.4529],[127.1017,37.4483],[127.1012,37.4482],[127.093,37.4379],[127.0788,37.4266],[127.0599,37.4182],[127.0538,37.415],[127.0492,37.4126],[127.0476,37.4067],[127.0469,37.4041],[127.0457,37.3938],[127.0398,37.3844],[127.0303,37.3712]]]]},"properties":{"id":"seongnam"},"id":"seongnam"},{"type":"Feature","geometry":{"type":"MultiPolygon","coordinates":[[[[126.9311,37.2594],[126.9429,37.2481],[126.9618,37.2359],[126.9677,37.2284],[126.976,37.2237],[126.9913,37.2218],[127.002,37.2208],[127.0138,37.2152],[127.0256,37.219],[127.0386,37.2265],[127.0492,37.2265],[127.0716,37.2246],[127.0741,37.2312],[127.0906,37.2509],[127.0953,37.2669],[127.0953,37.2801],[127.0871,37.2867],[127.0693,37.2867],[127.0622,37.2933],[127.0575,37.3074],[127.0469,37.3177],[127.0422,37.3271],[127.0374,37.3355],[127.0209,37.3421],[127.0008,37.3318],[126.9913,37.3177],[126.9713,37.3168],[126.9689,37.3064],[126.9677,37.298],[126.9559,37.2951],[126.9476,37.2914],[126.9462,37.2888],[126.9429,37.2829],[126.9346,37.2792],[126.9311,37.2594]]]]},"properties":{"id":"suwon"},"id":"suwon"},{"type":"Feature","geometry":{"type":"MultiPolygon","coordinates":[[[[128.4747,34.8748],[128.4791,34.8621],[128.4815,34.8549],[128.481,34.8497],[128.4805,34.8446],[128.4844,34.841],[128.4878,34.8362],[128.4946,34.8347],[128.5009,34.8343],[128.5028,34.8279],[128.5057,34.8231],[128.5091,34.82],[128.511,34.8172],[128.5115,34.8132],[128.5125,34.81],[128.5158,34.8088],[128.518,34.8116],[128.5201,34.8134],[128.5211,34.8154],[128.5214,34.8179],[128.5207,34.8207],[128.5223,34.8238],[128.5249,34.8229],[128.5273,34.8214],[128.5283,34.8225],[128.5281,34.8242],[128.5275,34.8255],[128.5256,34.8255],[128.5231,34.8259],[128.5219,34.8263],[128.5217,34.8275],[128.5229,34.8281],[128.5247,34.8285],[128.5261,34.8282],[128.5268,34.829],[128.5275,34.8299],[128.5271,34.8304],[128.5262,34.8306],[128.5247,34.8312],[128.5238,34.8323],[128.5252,34.8324],[128.5275,34.8323],[128.5286,34.8332],[128.5323,34.8338],[128.5345,34.8338],[128.5333,34.8325],[128.5371,34.8299],[128.5385,34.8305],[128.5395,34.8326],[128.5383,34.8342],[128.5399,34.8351],[128.5434,34.8349],[128.5454,34.8341],[128.5486,34.8339],[128.5508,34.8338],[128.5532,34.8333],[128.5555,34.8341],[128.5581,34.8342],[128.5601,34.8331],[128.5639,34.8331],[128.5659,34.8344],[128.5641,34.8383],[128.5631,34.8403],[128.5627,34.8427],[128.5653,34.8458],[128.568,34.8484],[128.5692,34.8489],[128.5708,34.8513],[128.5726,34.8536],[128.575,34.8544],[128.5789,34.8536],[128.5817,34.8521],[128.5823,34.8507],[128.5835,34.8489],[128.5865,34.8497],[128.5887,34.8486],[128.5885,34.8429],[128.5883,34.8416],[128.5865,34.8414],[128.5827,34.8425],[128.5825,34.8445],[128.5799,34.8439],[128.5805,34.8422],[128.5793,34.8411],[128.5823,34.8396],[128.5853,34.8393],[128.5863,34.8375],[128.5871,34.8352],[128.5851,34.8346],[128.5861,34.8328],[128.5877,34.8321],[128.5912,34.8302],[128.592,34.8287],[128.5962,34.829],[128.5964,34.8282],[128.5946,34.8258],[128.5924,34.8248],[128.5902,34.824],[128.5879,34.822],[128.5871,34.8196],[128.5853,34.8185],[128.5851,34.816],[128.5863,34.8133],[128.5851,34.8052],[128.5846,34.8005],[128.5817,34.7973],[128.5769,34.7941],[128.5725,34.7937],[128.5686,34.7925],[128.5648,34.7897],[128.5614,34.7893],[128.556,34.7913],[128.5497,34.7897],[128.5439,34.7866],[128.541,34.781],[128.541,34.7786],[128.5459,34.7798],[128.5488,34.783],[128.5528,34.7844],[128.5551,34.7859],[128.5573,34.7885],[128.5625,34.7885],[128.5668,34.7882],[128.5686,34.7872],[128.5688,34.7857],[128.567,34.7843],[128.5643,34.783],[128.5629,34.7796],[128.5611,34.7786],[128.5581,34.7794],[128.5547,34.7779],[128.553,34.7739],[128.553,34.7716],[128.554,34.769],[128.5542,34.7665],[128.5573,34.7677],[128.5609,34.767],[128.5631,34.766],[128.5659,34.7683],[128.567,34.7704],[128.5674,34.7725],[128.5682,34.7739],[128.5718,34.7748],[128.5744,34.7755],[128.5752,34.7771],[128.576,34.7781],[128.5793,34.7781],[128.5803,34.7768],[128.5833,34.776],[128.5867,34.7761],[128.5894,34.7769],[128.5914,34.7781],[128.5962,34.7781],[128.5982,34.7771],[128.5964,34.7748],[128.5914,34.7716],[128.5932,34.7708],[128.5958,34.7699],[128.5988,34.769],[128.6017,34.7672],[128.6021,34.7655],[128.6,34.7641],[128.5984,34.7634],[128.5946,34.7638],[128.5916,34.7647],[128.5898,34.7629],[128.5873,34.7613],[128.5853,34.7641],[128.5843,34.7647],[128.5819,34.7628],[128.5791,34.7629],[128.5807,34.7598],[128.5821,34.7568],[128.5819,34.7553],[128.5793,34.7543],[128.5779,34.7525],[128.5779,34.7499],[128.5773,34.7473],[128.5773,34.7453],[128.5777,34.7429],[128.5783,34.7406],[128.5817,34.7393],[128.5841,34.7385],[128.5863,34.737],[128.5922,34.7382],[128.5936,34.7374],[128.5958,34.7349],[128.5982,34.7352],[128.6003,34.7364],[128.6039,34.7362],[128.6063,34.7344],[128.6069,34.7323],[128.6063,34.7313],[128.6041,34.7297],[128.6045,34.7286],[128.6035,34.7269],[128.6,34.7261],[128.598,34.7237],[128.5946,34.7222],[128.593,34.7222],[128.5916,34.7235],[128.5888,34.7235],[128.5861,34.723],[128.5867,34.7214],[128.5885,34.7199],[128.5883,34.718],[128.5865,34.7163],[128.5843,34.7165],[128.5821,34.7159],[128.5807,34.7134],[128.5803,34.711],[128.5785,34.708],[128.5762,34.7069],[128.577,34.7053],[128.5775,34.704],[128.5785,34.7027],[128.5813,34.7033],[128.5835,34.7053],[128.5841,34.7072],[128.5865,34.7072],[128.5892,34.708],[128.591,34.7088],[128.5936,34.7088],[128.5968,34.7084],[128.6,34.7072],[128.6007,34.7049],[128.6025,34.7043],[128.6049,34.7031],[128.6073,34.7028],[128.6095,34.7027],[128.6115,34.7035],[128.614,34.7051],[128.6192,34.7048],[128.6202,34.7084],[128.621,34.7106],[128.6222,34.7126],[128.6257,34.7131],[128.6279,34.7132],[128.6285,34.7118],[128.6309,34.7113],[128.6327,34.7097],[128.6358,34.7088],[128.6388,34.7105],[128.6412,34.7124],[128.643,34.7136],[128.6402,34.7154],[128.6362,34.7181],[128.6337,34.7194],[128.6313,34.7201],[128.6293,34.7232],[128.6259,34.7276],[128.6255,34.7292],[128.6235,34.7312],[128.623,34.7297],[128.6231,34.7284],[128.6204,34.7305],[128.6222,34.7322],[128.6249,34.7335],[128.6263,34.7362],[128.6287,34.7375],[128.6307,34.7362],[128.6283,34.7338],[128.6277,34.7331],[128.6313,34.733],[128.6327,34.7335],[128.635,34.7348],[128.6398,34.7362],[128.6422,34.7359],[128.6448,34.7351],[128.6507,34.7343],[128.6523,34.7374],[128.6531,34.7396],[128.6549,34.7396],[128.6569,34.7387],[128.6608,34.7383],[128.6628,34.7387],[128.6636,34.7372],[128.667,34.7361],[128.6701,34.7383],[128.6727,34.7388],[128.6727,34.738],[128.6709,34.7361],[128.6715,34.7328],[128.6709,34.7315],[128.6727,34.7308],[128.6729,34.7289],[128.6751,34.7287],[128.6759,34.7302],[128.6753,34.7331],[128.6757,34.7351],[128.6771,34.7369],[128.6783,34.7372],[128.6795,34.7366],[128.6812,34.7362],[128.6824,34.7377],[128.6818,34.7392],[128.6787,34.7413],[128.6777,34.7434],[128.6757,34.7447],[128.6737,34.7424],[128.6709,34.744],[128.6705,34.746],[128.6684,34.7444],[128.6634,34.7445],[128.6614,34.7434],[128.6584,34.7427],[128.6555,34.7429],[128.6525,34.7426],[128.6513,34.7444],[128.6489,34.7457],[128.6483,34.7475],[128.6509,34.7496],[128.6493,34.7512],[128.6454,34.7533],[128.6442,34.7554],[128.6438,34.7584],[128.6406,34.7585],[128.64,34.7597],[128.6374,34.7633],[128.6374,34.7657],[128.6392,34.7688],[128.64,34.7719],[128.6412,34.7742],[128.6428,34.7774],[128.6442,34.7787],[128.6467,34.7787],[128.6513,34.7786],[128.6535,34.7773],[128.6543,34.776],[128.6559,34.775],[128.6584,34.7753],[128.662,34.7763],[128.6638,34.7773],[128.6646,34.7792],[128.6668,34.7809],[128.6684,34.7807],[128.6703,34.7818],[128.6719,34.7848],[128.6729,34.787],[128.6713,34.789],[128.6693,34.7901],[128.6682,34.7913],[128.6668,34.7932],[128.6672,34.796],[128.6693,34.7975],[128.6684,34.7994],[128.6672,34.8009],[128.6676,34.8023],[128.6686,34.8043],[128.668,34.8063],[128.667,34.8084],[128.667,34.8113],[128.6686,34.8123],[128.6713,34.8128],[128.6767,34.8128],[128.6791,34.8113],[128.6826,34.8106],[128.6862,34.81],[128.689,34.8093],[128.6919,34.8084],[128.6927,34.8072],[128.6919,34.8045],[128.691,34.8023],[128.6894,34.801],[128.6878,34.7999],[128.6902,34.7981],[128.6925,34.7981],[128.6951,34.7971],[128.6973,34.7976],[128.6991,34.7991],[128.6981,34.8019],[128.6979,34.8036],[128.6965,34.8054],[128.6961,34.8071],[128.6981,34.8082],[128.7011,34.8085],[128.7027,34.8102],[128.7042,34.8115],[128.7066,34.8126],[128.708,34.8137],[128.7142,34.8048],[128.7153,34.8015],[128.7147,34.8004],[128.7128,34.8001],[128.7108,34.7994],[128.7094,34.7975],[128.7094,34.7963],[128.7106,34.7949],[128.7128,34.7949],[128.7155,34.7936],[128.7179,34.7939],[128.7191,34.7929],[128.7205,34.7923],[128.7268,34.7921],[128.7292,34.7931],[128.7308,34.7924],[128.7326,34.7906],[128.736,34.7877],[128.7364,34.7869],[128.7389,34.7866],[128.7397,34.7877],[128.7397,34.7903],[128.7393,34.7924],[128.7377,34.7939],[128.7364,34.7947],[128.7379,34.7968],[128.7389,34.7994],[128.7366,34.8025],[128.732,34.8061],[128.7288,34.8095],[128.727,34.8124],[128.7229,34.8133],[128.7221,34.8154],[128.7233,34.8185],[128.7227,34.8211],[128.7193,34.8216],[128.7177,34.8232],[128.7187,34.8253],[128.7225,34.8263],[128.726,34.8286],[128.7253,34.8308],[128.7233,34.8336],[128.7209,34.8356],[128.7183,34.8375],[128.7155,34.8341],[128.7149,34.8326],[128.712,34.8316],[128.7108,34.8308],[128.7082,34.8294],[128.7064,34.8295],[128.7034,34.8316],[128.7028,34.8342],[128.7027,34.8365],[128.7013,34.8396],[128.7038,34.8421],[128.7058,34.8437],[128.7084,34.8447],[128.7104,34.846],[128.7118,34.8473],[128.7138,34.8489],[128.7169,34.8492],[128.7205,34.8492],[128.7213,34.8474],[128.7233,34.8439],[128.7243,34.8422],[128.7255,34.8416],[128.7286,34.8421],[128.7312,34.8424],[128.734,34.8421],[128.7354,34.8442],[128.736,34.8463],[128.7344,34.8489],[128.7342,34.8505],[128.7326,34.8528],[128.731,34.8531],[128.7294,34.8544],[128.7294,34.8588],[128.7253,34.8626],[128.7243,34.8643],[128.7258,34.866],[128.7288,34.8668],[128.73,34.8657],[128.7298,34.8639],[128.7316,34.8622],[128.7344,34.8626],[128.7368,34.8643],[128.7377,34.865],[128.7407,34.8648],[128.7423,34.8668],[128.7429,34.8694],[128.7419,34.8723],[128.7413,34.8739],[128.7401,34.8762],[128.7395,34.8785],[128.7429,34.8798],[128.7447,34.8796],[128.7435,34.8821],[128.7437,34.8844],[128.7475,34.8858],[128.7498,34.8902],[128.7508,34.8912],[128.7518,34.8931],[128.7522,34.8946],[128.7498,34.894],[128.7475,34.8913],[128.7437,34.8905],[128.7429,34.8897],[128.7415,34.8891],[128.7415,34.8878],[128.7407,34.8861],[128.7391,34.8853],[128.7364,34.8848],[128.735,34.8863],[128.735,34.8886],[128.7336,34.8912],[128.732,34.8912],[128.7308,34.8892],[128.7284,34.8883],[128.7256,34.8879],[128.7237,34.8889],[128.7227,34.8866],[128.7219,34.8853],[128.7169,34.8803],[128.7183,34.8774],[128.7106,34.8699],[128.7078,34.8713],[128.704,34.8738],[128.7017,34.8756],[128.6997,34.8782],[128.6983,34.8801],[128.6979,34.8822],[128.6979,34.8852],[128.6971,34.8878],[128.6965,34.8909],[128.6983,34.8905],[128.7025,34.8909],[128.7046,34.892],[128.7058,34.8953],[128.7064,34.8977],[128.708,34.8992],[128.7118,34.8992],[128.7161,34.9008],[128.7173,34.9018],[128.714,34.905],[128.7126,34.9074],[128.7126,34.9096],[128.7108,34.9109],[128.7126,34.912],[128.7143,34.9127],[128.7159,34.9122],[128.7169,34.9104],[128.7187,34.9099],[128.7205,34.9109],[128.7217,34.912],[128.7231,34.9133],[128.7235,34.9164],[128.7231,34.9179],[128.7219,34.918],[128.7203,34.919],[128.7187,34.9203],[128.7179,34.9226],[128.7175,34.9253],[128.7193,34.9261],[128.7199,34.9278],[128.7183,34.9291],[128.7165,34.9309],[128.7181,34.9315],[128.7185,34.933],[128.7161,34.9356],[128.7157,34.9366],[128.7166,34.9375],[128.7186,34.9364],[128.7193,34.9371],[128.7192,34.9383],[128.7177,34.9402],[128.7189,34.9409],[128.7203,34.9416],[128.7211,34.9404],[128.7221,34.9391],[128.7231,34.9383],[128.7244,34.937],[128.7254,34.9373],[128.7272,34.9382],[128.7269,34.9399],[128.7264,34.9416],[128.7267,34.943],[128.7271,34.9454],[128.7268,34.9465],[128.7258,34.9477],[128.7248,34.9489],[128.7232,34.9493],[128.722,34.9493],[128.7203,34.9499],[128.7197,34.9517],[128.7183,34.953],[128.7164,34.9558],[128.7149,34.9579],[128.7149,34.959],[128.7153,34.9601],[128.7173,34.9605],[128.7179,34.9614],[128.717,34.9633],[128.7159,34.9646],[128.714,34.9648],[128.7114,34.9647],[128.7102,34.9648],[128.7089,34.9655],[128.7069,34.9659],[128.7048,34.9687],[128.7041,34.9705],[128.7038,34.9715],[128.6993,34.9708],[128.6956,34.9748],[128.6947,34.9789],[128.695,34.9802],[128.6969,34.9816],[128.6977,34.9827],[128.6977,34.9842],[128.6971,34.9855],[128.6979,34.9867],[128.6993,34.9874],[128.6996,34.9883],[128.7,34.9901],[128.701,34.991],[128.7004,34.992],[128.6993,34.9921],[128.6979,34.9916],[128.697,34.9906],[128.6953,34.9901],[128.6944,34.9919],[128.6934,34.9939],[128.6924,34.996],[128.6927,34.9966],[128.6941,34.9976],[128.6951,34.9977],[128.6961,34.9976],[128.6974,34.9976],[128.6982,34.9974],[128.6989,34.9974],[128.7,34.9979],[128.7004,34.999],[128.7017,34.999],[128.7032,34.9985],[128.7041,34.9973],[128.7056,34.9966],[128.707,34.9977],[128.7061,34.999],[128.7066,34.9997],[128.7066,35.0011],[128.7052,35.0013],[128.7036,35.0006],[128.7017,35.0018],[128.7009,35.0033],[128.701,35.0051],[128.7019,35.0066],[128.7036,35.0078],[128.705,35.0085],[128.707,35.0086],[128.7083,35.0091],[128.7095,35.0085],[128.7101,35.0078],[128.7112,35.007],[128.7112,35.0064],[128.7109,35.0053],[128.7127,35.0052],[128.7136,35.0065],[128.7141,35.0074],[128.716,35.009],[128.7179,35.0103],[128.717,35.0117],[128.7182,35.0129],[128.7191,35.0141],[128.7196,35.0157],[128.7212,35.0175],[128.7219,35.0183],[128.7215,35.0192],[128.7196,35.0189],[128.7197,35.0202],[128.7198,35.0214],[128.7196,35.0227],[128.7191,35.0239],[128.7179,35.0244],[128.7172,35.0254],[128.7164,35.0267],[128.7155,35.0272],[128.7144,35.0283],[128.7139,35.0296],[128.7128,35.0311],[128.7117,35.0317],[128.7087,35.0327],[128.7076,35.0316],[128.7059,35.0316],[128.7047,35.0325],[128.7035,35.0334],[128.7026,35.0346],[128.6993,35.0366],[128.6996,35.035],[128.6996,35.0338],[128.6991,35.0327],[128.6994,35.0314],[128.6981,35.0307],[128.6953,35.0307],[128.6942,35.0306],[128.693,35.0311],[128.6918,35.0315],[128.6896,35.032],[128.69,35.0334],[128.6899,35.0343],[128.6877,35.0352],[128.6876,35.036],[128.6882,35.0371],[128.6877,35.0381],[128.6858,35.0387],[128.6847,35.0392],[128.6837,35.0398],[128.6823,35.0394],[128.6811,35.0392],[128.68,35.0394],[128.6788,35.0405],[128.6778,35.0403],[128.6754,35.0404],[128.6763,35.039],[128.6783,35.0385],[128.68,35.0382],[128.6811,35.0374],[128.6819,35.0364],[128.6829,35.0362],[128.6844,35.0357],[128.6849,35.0347],[128.6847,35.0341],[128.6829,35.0329],[128.6819,35.0327],[128.6807,35.0334],[128.6797,35.0324],[128.6781,35.0318],[128.6774,35.0328],[128.6779,35.0332],[128.6759,35.0323],[128.6752,35.0308],[128.676,35.0293],[128.6754,35.0279],[128.6753,35.0267],[128.6757,35.0252],[128.676,35.0234],[128.676,35.0216],[128.6757,35.0207],[128.6738,35.0207],[128.6724,35.0211],[128.6724,35.0224],[128.6721,35.0237],[128.671,35.0249],[128.6694,35.0257],[128.67,35.0243],[128.6711,35.0232],[128.6713,35.0223],[128.6717,35.02],[128.6708,35.0184],[128.6708,35.0173],[128.6717,35.0159],[128.671,35.015],[128.6711,35.0141],[128.6717,35.0134],[128.6708,35.012],[128.6698,35.0112],[128.6686,35.011],[128.6683,35.0093],[128.6683,35.0083],[128.6674,35.0068],[128.6697,35.0069],[128.6712,35.0069],[128.6722,35.006],[128.6734,35.0051],[128.6748,35.0049],[128.6764,35.0043],[128.6774,35.0053],[128.6778,35.0075],[128.6795,35.0084],[128.6806,35.0086],[128.6815,35.0072],[128.6818,35.0065],[128.6809,35.0053],[128.6823,35.0042],[128.6826,35.0031],[128.6825,35.0019],[128.681,35.0013],[128.6804,35.0009],[128.6792,35.0002],[128.6783,35.001],[128.6773,35.0013],[128.6762,35.0006],[128.6746,35.0009],[128.6739,35.0008],[128.6736,35.0011],[128.6734,35.0007],[128.6734,34.9993],[128.6735,34.9987],[128.6737,34.9983],[128.6743,34.9978],[128.6747,34.9975],[128.6751,34.9974],[128.6758,34.9974],[128.6764,34.9975],[128.6768,34.9971],[128.6775,34.9972],[128.678,34.9969],[128.6784,34.9968],[128.6788,34.9967],[128.679,34.9963],[128.679,34.9959],[128.6786,34.9958],[128.6785,34.9955],[128.6785,34.9952],[128.6788,34.995],[128.6793,34.9948],[128.6798,34.9946],[128.6802,34.994],[128.6804,34.9936],[128.6802,34.9931],[128.6802,34.9928],[128.6807,34.9926],[128.6809,34.9924],[128.6812,34.9915],[128.6812,34.991],[128.681,34.9906],[128.6814,34.9899],[128.6814,34.9894],[128.6812,34.9887],[128.6797,34.9885],[128.6793,34.9878],[128.6789,34.9873],[128.6779,34.9873],[128.6772,34.9877],[128.6776,34.9885],[128.6763,34.9886],[128.6746,34.9901],[128.6749,34.9908],[128.6752,34.9912],[128.6752,34.9922],[128.675,34.9937],[128.6748,34.9938],[128.6744,34.9933],[128.6737,34.9929],[128.6733,34.9931],[128.6735,34.994],[128.6735,34.9948],[128.673,34.9955],[128.6724,34.9962],[128.6724,34.9965],[128.6715,34.9963],[128.6712,34.9968],[128.6707,34.9978],[128.6707,34.9985],[128.6703,34.9987],[128.6695,34.9984],[128.6689,34.9982],[128.6683,34.9974],[128.6679,34.9968],[128.6675,34.9962],[128.6669,34.9958],[128.667,34.9952],[128.6669,34.9947],[128.6663,34.9943],[128.665,34.9944],[128.6645,34.9949],[128.6646,34.9959],[128.6645,34.997],[128.6641,34.9976],[128.6635,34.9974],[128.6627,34.997],[128.6614,34.9973],[128.6609,34.9976],[128.6598,34.9976],[128.6595,34.9971],[128.6597,34.9967],[128.6603,34.9964],[128.6607,34.9959],[128.661,34.9954],[128.6609,34.9949],[128.6601,34.9947],[128.6602,34.9939],[128.6614,34.9934],[128.6621,34.9931],[128.6626,34.9927],[128.6634,34.9925],[128.6641,34.9924],[128.6648,34.9919],[128.6648,34.9915],[128.6655,34.9911],[128.6666,34.9901],[128.6671,34.99],[128.6673,34.9889],[128.6673,34.9882],[128.666,34.988],[128.6659,34.9887],[128.6653,34.9891],[128.6643,34.9894],[128.6644,34.9899],[128.664,34.9904],[128.6632,34.99],[128.6623,34.99],[128.6619,34.9902],[128.6614,34.9897],[128.6606,34.9899],[128.66,34.9902],[128.6595,34.9905],[128.6588,34.9907],[128.6587,34.9901],[128.6591,34.9898],[128.6592,34.9895],[128.6588,34.9892],[128.6583,34.9887],[128.6577,34.9885],[128.6571,34.9884],[128.6566,34.9889],[128.6561,34.9894],[128.6556,34.99],[128.6551,34.99],[128.655,34.9895],[128.6541,34.9889],[128.654,34.9883],[128.6539,34.9879],[128.6537,34.9875],[128.654,34.987],[128.6541,34.9865],[128.654,34.9857],[128.6541,34.985],[128.6537,34.9844],[128.6537,34.9834],[128.6545,34.9828],[128.6552,34.983],[128.6556,34.9833],[128.656,34.9832],[128.6568,34.983],[128.6579,34.9827],[128.6592,34.9825],[128.6592,34.9812],[128.6584,34.981],[128.6582,34.9803],[128.6581,34.9798],[128.6577,34.9794],[128.6554,34.9784],[128.6543,34.9794],[128.6538,34.9796],[128.653,34.9794],[128.6523,34.9792],[128.6508,34.9795],[128.6502,34.9794],[128.6468,34.9807],[128.6465,34.9816],[128.6464,34.983],[128.6467,34.9837],[128.6473,34.9842],[128.6473,34.985],[128.6476,34.9858],[128.6478,34.9864],[128.6473,34.9873],[128.6474,34.9881],[128.6473,34.989],[128.6464,34.9897],[128.6466,34.9907],[128.6471,34.9914],[128.6453,34.9924],[128.6449,34.9935],[128.6449,34.994],[128.646,34.995],[128.6468,34.9953],[128.6476,34.9955],[128.648,34.9953],[128.6492,34.9948],[128.6499,34.9947],[128.6503,34.9941],[128.6513,34.9938],[128.6518,34.9941],[128.6519,34.9947],[128.6522,34.9953],[128.6524,34.9962],[128.6518,34.996],[128.6512,34.9959],[128.6499,34.9967],[128.6488,34.9967],[128.6481,34.9962],[128.6471,34.9968],[128.6466,34.9976],[128.6472,34.9985],[128.6469,34.9993],[128.646,34.9999],[128.6462,35.0003],[128.6473,35.0004],[128.6489,35.0007],[128.6497,35.0007],[128.6503,35.0011],[128.6499,35.0016],[128.6493,35.0017],[128.649,35.0025],[128.6494,35.0031],[128.6495,35.0039],[128.6495,35.0046],[128.6504,35.0048],[128.6514,35.0048],[128.652,35.0049],[128.6526,35.0053],[128.6527,35.0059],[128.6521,35.0074],[128.6522,35.0082],[128.6522,35.009],[128.6522,35.0097],[128.6523,35.0101],[128.6526,35.0104],[128.653,35.0108],[128.6534,35.0111],[128.6538,35.0112],[128.6542,35.0112],[128.6545,35.0115],[128.6545,35.012],[128.6547,35.0127],[128.6546,35.0129],[128.6543,35.0132],[128.654,35.0135],[128.6538,35.0141],[128.6535,35.0145],[128.6533,35.0148],[128.653,35.0159],[128.6529,35.0165],[128.6529,35.0171],[128.6526,35.0176],[128.6524,35.0179],[128.6519,35.018],[128.6513,35.0183],[128.6511,35.0188],[128.6508,35.0195],[128.651,35.0199],[128.6504,35.0203],[128.65,35.0205],[128.6495,35.021],[128.6493,35.0216],[128.6489,35.0219],[128.6488,35.0222],[128.6484,35.0222],[128.6482,35.0217],[128.6478,35.0214],[128.6479,35.0209],[128.648,35.0202],[128.6482,35.0197],[128.6482,35.0191],[128.6479,35.019],[128.6477,35.0185],[128.6477,35.0181],[128.6474,35.0177],[128.6467,35.0175],[128.6462,35.0172],[128.6459,35.0169],[128.6467,35.016],[128.646,35.0155],[128.6452,35.0156],[128.6442,35.0148],[128.6442,35.0145],[128.6441,35.0139],[128.6442,35.0136],[128.6445,35.0131],[128.6444,35.0127],[128.644,35.0125],[128.6434,35.0122],[128.6427,35.0119],[128.642,35.0116],[128.6414,35.0114],[128.6401,35.0117],[128.6407,35.0124],[128.6406,35.0128],[128.6403,35.0134],[128.6401,35.0139],[128.6396,35.0146],[128.639,35.0148],[128.6389,35.0153],[128.6386,35.0156],[128.6383,35.0153],[128.638,35.0152],[128.6372,35.015],[128.6365,35.0143],[128.6365,35.0137],[128.6363,35.013],[128.636,35.0123],[128.6354,35.0117],[128.6346,35.0119],[128.6343,35.0123],[128.6337,35.0123],[128.6342,35.0117],[128.6345,35.0115],[128.6347,35.0112],[128.6345,35.0107],[128.6341,35.0103],[128.6336,35.0102],[128.6329,35.0101],[128.6326,35.0097],[128.6322,35.0093],[128.6318,35.0091],[128.6313,35.0086],[128.6311,35.0085],[128.6312,35.0082],[128.6314,35.0079],[128.6315,35.0075],[128.6315,35.0071],[128.6315,35.0066],[128.6315,35.0063],[128.6314,35.006],[128.6314,35.0056],[128.6317,35.0054],[128.632,35.0052],[128.6323,35.0048],[128.6329,35.0047],[128.6332,35.0045],[128.6335,35.0041],[128.6338,35.0039],[128.6341,35.0037],[128.6348,35.0033],[128.635,35.003],[128.6351,35.0025],[128.6351,35.0019],[128.635,35.0015],[128.6349,35.0012],[128.6347,35.0009],[128.6345,35.0008],[128.6342,35.0006],[128.634,35.0003],[128.6339,35],[128.6339,34.9995],[128.6343,34.9993],[128.6345,34.9989],[128.6344,34.9987],[128.6342,34.9985],[128.6336,34.9984],[128.6331,34.9984],[128.6326,34.9986],[128.6321,34.9988],[128.6317,34.9989],[128.6314,34.9991],[128.6309,34.9992],[128.6305,34.999],[128.6303,34.9987],[128.63,34.9986],[128.6298,34.9985],[128.6294,34.9986],[128.6291,34.9987],[128.6288,34.9985],[128.6284,34.9981],[128.6281,34.9979],[128.6277,34.9978],[128.6274,34.9978],[128.6271,34.9981],[128.6266,34.9984],[128.626,34.9987],[128.6255,34.9988],[128.6249,34.999],[128.6245,34.9993],[128.6241,34.9996],[128.6238,34.9998],[128.6235,34.9997],[128.623,34.9996],[128.6225,34.9996],[128.6221,34.9997],[128.6217,34.9995],[128.6214,34.9993],[128.621,34.9992],[128.6206,34.9994],[128.6205,34.9996],[128.6201,34.9997],[128.6198,34.9996],[128.6192,34.9996],[128.619,34.9994],[128.6187,34.9993],[128.6184,34.9993],[128.6179,34.9995],[128.6176,34.9994],[128.6173,34.9992],[128.6168,34.9983],[128.6169,34.9977],[128.6168,34.9969],[128.6166,34.9965],[128.6158,34.9951],[128.6161,34.9951],[128.6163,34.995],[128.6167,34.995],[128.6171,34.9951],[128.6175,34.9952],[128.6177,34.9953],[128.6181,34.9953],[128.6184,34.995],[128.6186,34.9951],[128.6188,34.9952],[128.6189,34.9954],[128.6194,34.9956],[128.6199,34.9957],[128.6202,34.9956],[128.6207,34.9955],[128.6211,34.9953],[128.6216,34.9954],[128.6221,34.9954],[128.6225,34.9955],[128.6229,34.9956],[128.6233,34.9955],[128.6236,34.9955],[128.6241,34.9955],[128.6245,34.9955],[128.6249,34.9954],[128.6252,34.9953],[128.6255,34.9951],[128.6259,34.9947],[128.6265,34.9937],[128.6265,34.993],[128.6257,34.9923],[128.625,34.9919],[128.6247,34.9907],[128.6247,34.9901],[128.624,34.9899],[128.623,34.9895],[128.6223,34.9887],[128.6225,34.9878],[128.6222,34.9865],[128.6214,34.986],[128.6202,34.9856],[128.6193,34.9847],[128.6186,34.9843],[128.6177,34.9845],[128.6174,34.9853],[128.617,34.9863],[128.6154,34.9869],[128.6149,34.9862],[128.6132,34.9861],[128.6127,34.9855],[128.6119,34.9841],[128.6112,34.9834],[128.6128,34.9808],[128.6123,34.9799],[128.6119,34.9791],[128.6111,34.9782],[128.6102,34.9773],[128.6088,34.9761],[128.6088,34.975],[128.6096,34.9742],[128.6102,34.9736],[128.6109,34.973],[128.6131,34.9726],[128.6156,34.9735],[128.6171,34.9747],[128.6179,34.9754],[128.6179,34.9765],[128.618,34.9775],[128.6182,34.9786],[128.6192,34.9786],[128.6195,34.9794],[128.6188,34.9803],[128.6187,34.9809],[128.6192,34.9815],[128.6206,34.9825],[128.6222,34.9833],[128.6225,34.9827],[128.6227,34.9821],[128.6236,34.982],[128.6241,34.9827],[128.625,34.9824],[128.6253,34.9818],[128.6257,34.9807],[128.6266,34.9803],[128.628,34.9803],[128.63,34.9809],[128.6309,34.9802],[128.6306,34.979],[128.6279,34.9786],[128.6272,34.978],[128.6266,34.9773],[128.6278,34.9769],[128.6283,34.9764],[128.6285,34.9758],[128.6297,34.9763],[128.6302,34.9771],[128.6322,34.9778],[128.6333,34.9773],[128.6342,34.9782],[128.635,34.9785],[128.6361,34.9778],[128.6387,34.9774],[128.6401,34.9778],[128.6407,34.978],[128.6418,34.9782],[128.6426,34.9783],[128.6437,34.9784],[128.6441,34.9788],[128.6442,34.9794],[128.6446,34.9798],[128.6451,34.98],[128.6459,34.9801],[128.6466,34.9803],[128.6504,34.9789],[128.6506,34.9786],[128.6508,34.9783],[128.6513,34.9782],[128.6518,34.9779],[128.6521,34.9774],[128.6523,34.9769],[128.6522,34.9766],[128.6516,34.9769],[128.6513,34.9769],[128.6511,34.9767],[128.6507,34.9767],[128.6504,34.9763],[128.6503,34.9758],[128.6506,34.9755],[128.6511,34.9752],[128.6512,34.9749],[128.6511,34.9746],[128.6506,34.9745],[128.6502,34.9742],[128.6499,34.9739],[128.6496,34.9734],[128.6495,34.9728],[128.6493,34.9725],[128.6488,34.9719],[128.649,34.9716],[128.6493,34.9711],[128.6494,34.9706],[128.6494,34.9698],[128.6492,34.9692],[128.6487,34.9687],[128.6483,34.9682],[128.6481,34.9678],[128.648,34.9674],[128.6475,34.967],[128.647,34.9662],[128.6471,34.9653],[128.6472,34.9648],[128.6472,34.9642],[128.6475,34.9637],[128.6473,34.9634],[128.6472,34.963],[128.6477,34.9626],[128.6483,34.9625],[128.6502,34.962],[128.6514,34.9614],[128.6494,34.9572],[128.6492,34.9573],[128.6494,34.9579],[128.6494,34.9581],[128.6492,34.9584],[128.6489,34.9586],[128.6486,34.9589],[128.6483,34.9592],[128.6479,34.9596],[128.6475,34.9599],[128.6471,34.9601],[128.6468,34.9598],[128.6462,34.9595],[128.6455,34.9591],[128.6452,34.9589],[128.6449,34.9587],[128.6434,34.9588],[128.6428,34.9588],[128.6424,34.9586],[128.6421,34.9589],[128.6417,34.9596],[128.6408,34.9602],[128.6402,34.9609],[128.6395,34.9617],[128.6392,34.962],[128.6387,34.9624],[128.6382,34.9626],[128.6376,34.9626],[128.637,34.9626],[128.6357,34.9629],[128.6354,34.9631],[128.6354,34.9637],[128.6351,34.9643],[128.6354,34.9652],[128.635,34.9658],[128.6348,34.9659],[128.6344,34.9657],[128.6339,34.966],[128.6337,34.9662],[128.6329,34.9668],[128.6325,34.9671],[128.6323,34.9666],[128.6319,34.9664],[128.6316,34.9664],[128.6314,34.966],[128.6315,34.9656],[128.6321,34.9654],[128.633,34.9652],[128.6333,34.965],[128.6335,34.9645],[128.6334,34.9642],[128.6336,34.9634],[128.6341,34.963],[128.6342,34.9628],[128.6342,34.9624],[128.6339,34.9622],[128.6336,34.9622],[128.6331,34.9623],[128.633,34.9624],[128.633,34.9625],[128.6328,34.9626],[128.6326,34.9626],[128.6324,34.9627],[128.6328,34.9622],[128.6326,34.9621],[128.6321,34.9626],[128.6322,34.9624],[128.6323,34.9623],[128.6324,34.9622],[128.6325,34.9617],[128.6327,34.9615],[128.6324,34.9611],[128.6322,34.9612],[128.6321,34.9613],[128.6319,34.9612],[128.6315,34.9612],[128.6312,34.9612],[128.6304,34.9615],[128.6304,34.9616],[128.63,34.9619],[128.6298,34.9619],[128.6295,34.962],[128.6291,34.9621],[128.6289,34.9623],[128.6286,34.9625],[128.6279,34.9626],[128.6269,34.963],[128.6265,34.9631],[128.6261,34.9632],[128.6259,34.9634],[128.6253,34.9637],[128.6244,34.9639],[128.6241,34.9638],[128.624,34.9634],[128.6239,34.9631],[128.6237,34.963],[128.6234,34.9629],[128.6231,34.9629],[128.6228,34.9631],[128.6225,34.9631],[128.6223,34.963],[128.6222,34.9624],[128.6221,34.9622],[128.6218,34.9621],[128.6215,34.9618],[128.621,34.9615],[128.6203,34.9612],[128.6201,34.9611],[128.6194,34.9611],[128.619,34.9612],[128.6189,34.9615],[128.6185,34.9618],[128.618,34.962],[128.6176,34.9623],[128.6174,34.9626],[128.6172,34.963],[128.617,34.9634],[128.6167,34.9637],[128.6166,34.9633],[128.6163,34.9632],[128.616,34.9631],[128.6159,34.9627],[128.6156,34.9625],[128.6152,34.9624],[128.6149,34.9621],[128.6146,34.9617],[128.6145,34.9614],[128.6142,34.9612],[128.6136,34.961],[128.6129,34.9608],[128.6127,34.9609],[128.6125,34.9607],[128.6121,34.9606],[128.6119,34.9605],[128.6116,34.9602],[128.611,34.96],[128.6109,34.9597],[128.6106,34.9594],[128.6104,34.9591],[128.6102,34.9588],[128.6099,34.9586],[128.6096,34.9585],[128.6094,34.9583],[128.6091,34.9581],[128.6086,34.9584],[128.6077,34.9585],[128.6075,34.9583],[128.6072,34.9582],[128.6064,34.9578],[128.6055,34.9577],[128.6048,34.958],[128.6044,34.9583],[128.6044,34.9586],[128.6049,34.9588],[128.6054,34.959],[128.6056,34.9596],[128.606,34.9597],[128.6068,34.9599],[128.6069,34.9606],[128.6067,34.9612],[128.6067,34.9619],[128.6071,34.9626],[128.6076,34.9633],[128.6081,34.964],[128.6086,34.9646],[128.6093,34.965],[128.6098,34.9649],[128.6104,34.9644],[128.611,34.9648],[128.6109,34.9654],[128.6105,34.9657],[128.6098,34.9657],[128.609,34.966],[128.6088,34.9666],[128.6094,34.9668],[128.6101,34.9672],[128.6102,34.9677],[128.61,34.9681],[128.6096,34.9677],[128.6086,34.9681],[128.608,34.9687],[128.6073,34.9694],[128.6067,34.9698],[128.6063,34.9698],[128.6052,34.9694],[128.6045,34.9691],[128.6038,34.9689],[128.6032,34.9683],[128.6026,34.9679],[128.6018,34.9676],[128.6013,34.9677],[128.6006,34.968],[128.5998,34.9679],[128.5993,34.9676],[128.5988,34.9669],[128.5984,34.9663],[128.5981,34.9659],[128.598,34.9649],[128.5982,34.9643],[128.5985,34.9637],[128.5987,34.9629],[128.5986,34.9622],[128.5987,34.9617],[128.5989,34.961],[128.5992,34.9604],[128.5999,34.9599],[128.6005,34.9595],[128.6008,34.9591],[128.6009,34.9586],[128.6007,34.9583],[128.5998,34.9582],[128.5991,34.9582],[128.5992,34.9576],[128.5995,34.9572],[128.6,34.9565],[128.6001,34.9562],[128.5994,34.9548],[128.5992,34.9544],[128.5992,34.9539],[128.5988,34.9534],[128.5981,34.9527],[128.5974,34.9514],[128.5959,34.9502],[128.5938,34.9497],[128.5924,34.9501],[128.5909,34.9521],[128.589,34.9528],[128.5893,34.9513],[128.5891,34.95],[128.5882,34.9487],[128.5875,34.9477],[128.5862,34.947],[128.5865,34.9453],[128.5858,34.9437],[128.5863,34.9419],[128.5948,34.937],[128.5922,34.9352],[128.5975,34.9303],[128.5998,34.9317],[128.6012,34.9296],[128.6004,34.929],[128.6027,34.9254],[128.6047,34.9245],[128.6065,34.9241],[128.6077,34.9236],[128.6087,34.9241],[128.6106,34.9241],[128.6113,34.923],[128.611,34.9212],[128.6104,34.9201],[128.6088,34.9194],[128.6082,34.9181],[128.6079,34.9164],[128.6079,34.9152],[128.6096,34.9139],[128.6107,34.914],[128.6123,34.9138],[128.6134,34.9151],[128.6131,34.9161],[128.613,34.917],[128.6148,34.9165],[128.6171,34.9175],[128.6262,34.9095],[128.627,34.907],[128.6247,34.9002],[128.6179,34.8946],[128.6111,34.8983],[128.602,34.9033],[128.5952,34.9095],[128.5907,34.9151],[128.5808,34.912],[128.5778,34.9107],[128.5778,34.9045],[128.5715,34.9002],[128.5667,34.9002],[128.5585,34.9053],[128.5541,34.9073],[128.5478,34.9089],[128.543,34.9145],[128.5396,34.9192],[128.5338,34.92],[128.5183,34.9176],[128.5154,34.9149],[128.511,34.9101],[128.5072,34.9073],[128.5023,34.9034],[128.4975,34.9006],[128.4926,34.8982],[128.4849,34.8922],[128.481,34.8887],[128.4781,34.8847],[128.4762,34.8791],[128.4747,34.8748]]],[[[128.5131,34.9423],[128.5134,34.9406],[128.5151,34.9392],[128.5168,34.936],[128.5181,34.9351],[128.5211,34.9339],[128.5207,34.9317],[128.5212,34.9307],[128.5237,34.9302],[128.5244,34.9285],[128.5259,34.9285],[128.527,34.9293],[128.5298,34.9296],[128.5294,34.931],[128.527,34.9313],[128.5292,34.933],[128.5287,34.9345],[128.527,34.9359],[128.5256,34.937],[128.5274,34.9396],[128.532,34.9381],[128.5356,34.9389],[128.5351,34.9433],[128.5306,34.9456],[128.5261,34.9471],[128.5242,34.95],[128.5224,34.9534],[128.5256,34.959],[128.5301,34.9608],[128.5329,34.9623],[128.5356,34.9671],[128.5347,34.9694],[128.5333,34.9716],[128.5283,34.9724],[128.5242,34.9738],[128.522,34.9741],[128.5192,34.9753],[128.5179,34.9756],[128.5177,34.9739],[128.5166,34.9717],[128.5146,34.9675],[128.514,34.9653],[128.5144,34.963],[128.5155,34.9621],[128.5188,34.9593],[128.5186,34.9578],[128.5173,34.9566],[128.5177,34.9546],[128.5188,34.9532],[128.5192,34.9522],[128.5179,34.9514],[128.5164,34.9502],[128.5172,34.9487],[128.5173,34.9474],[128.5166,34.9462],[128.516,34.9451],[128.514,34.9441],[128.5131,34.9423]]],[[[128.5276,34.8062],[128.5282,34.8039],[128.5319,34.8037],[128.5369,34.806],[128.5393,34.8078],[128.5409,34.8106],[128.5424,34.8134],[128.5449,34.8154],[128.5455,34.8184],[128.5443,34.822],[128.5427,34.8233],[128.5384,34.8233],[128.535,34.8225],[128.5328,34.8174],[128.5328,34.8149],[128.5316,34.8134],[128.5285,34.8121],[128.5282,34.809],[128.5276,34.8062]]]]},"properties":{"id":"geoje"},"id":"geoje"},{"type":"Feature","geometry":{"type":"MultiPolygon","coordinates":[[[[126.6909,37.3314],[126.6986,37.3232],[126.7094,37.3171],[126.7306,37.3072],[126.7456,37.3183],[126.7533,37.3257],[126.7683,37.3286],[126.79,37.3302],[126.7962,37.3331],[126.8013,37.3401],[126.8106,37.3475],[126.8199,37.3553],[126.8282,37.3585],[126.8401,37.3577],[126.87,37.3565],[126.8793,37.3598],[126.8798,37.3673],[126.8798,37.3684],[126.8798,37.3799],[126.8767,37.3893],[126.8762,37.3896],[126.8695,37.3938],[126.8617,37.3967],[126.8499,37.4041],[126.8442,37.418],[126.8447,37.4266],[126.8452,37.432],[126.8457,37.4389],[126.8437,37.4447],[126.8385,37.4484],[126.8354,37.449],[126.8303,37.45],[126.821,37.4496],[126.8034,37.4496],[126.7962,37.4537],[126.7833,37.4545],[126.7838,37.4463],[126.7812,37.4414],[126.776,37.4361],[126.7745,37.4266],[126.7729,37.4193],[126.7673,37.4143],[126.759,37.4065],[126.7554,37.4008],[126.7466,37.3934],[126.7471,37.3893],[126.7445,37.3844],[126.7363,37.3774],[126.7349,37.3773],[126.7363,37.3684],[126.7337,37.3651],[126.7249,37.3569],[126.7162,37.352],[126.7063,37.3446],[126.6986,37.3388],[126.6909,37.3314]]]]},"properties":{"id":"siheung"},"id":"siheung"},{"type":"Feature","geometry":{"type":"MultiPolygon","coordinates":[[[[126.8803,37.3171],[126.8834,37.3121],[126.8979,37.3121],[126.9098,37.313],[126.916,37.3105],[126.9216,37.3002],[126.9237,37.2974],[126.9289,37.297],[126.9361,37.2928],[126.9363,37.2928],[126.9382,37.3031],[126.9397,37.3109],[126.9449,37.3171],[126.9521,37.3236],[126.9583,37.3298],[126.9635,37.3364],[126.9676,37.3425],[126.9681,37.3499],[126.9684,37.3545],[126.9495,37.3569],[126.9464,37.3589],[126.9449,37.3639],[126.9418,37.3663],[126.9351,37.3676],[126.9304,37.3676],[126.9237,37.3651],[126.9201,37.3635],[126.916,37.3602],[126.9129,37.3573],[126.9118,37.3524],[126.8988,37.3483],[126.8989,37.3466],[126.8922,37.336],[126.8855,37.3323],[126.8876,37.3273],[126.8824,37.3208],[126.8803,37.3171]]]]},"properties":{"id":"gunpo"},"id":"gunpo"}]}